,Number,Name,Parent (SMC),Parent name (SMC),Section,Region,Area,Island,Topo Section,County,Classification,Map 1:50k,Map 1:25k,Metres,Feet,Grid ref,Grid ref 10,Drop,Col grid ref,Col height,Feature,Observations,Survey,Climbed,Country,County Top,Revision,Comments,Streetmap,Geograph/MountainViews,Hill-bagging,Xcoord,Ycoord,Latitude,Longitude,GridrefXY,_Section,Parent (Ma),Parent name (Ma),MVNumber,Ma,Ma=,Hu,Hu=,Tu,Tu=,Sim,5,M,MT,F,C,G,D,DT,Hew,N,Dew,DDew,HF,4,3,2,1,1=,0,W,WO,B,Sy,Fel,CoH,CoH=,CoU,CoU=,CoA,CoA=,CoL,CoL=,SIB,sMa,sHu,sSim,s5,s4,Mur,CT,GT,BL,Bg,Y,Cm,T100,xMT,xC,xG,xN,xDT,Dil,VL,A,MDew,sMDew,Ca,Bin,O,Un,coords
1801,1802,Blackhope Scar,,,28A,28A: Firth of Forth to the River Tweed,Moorfoot Hills,,P03:Glasgow to Galashiels and North Berwick,Midlothian/Scottish Borders,"Ma,G,Sim,D,CoH,CoU,CoA",73,337,651.0,2136,NT315483,NT 31512 48324,282.0,NT347465,369.0,no feature 15m SW of trig point,trig point is at NT 31528 48334 and probably lower,,,S,Midlothian (UA) Midlothian (CoH) Lothian (CoA),28-Oct-01,,"http://www.streetmap.co.uk/newmap.srf?x=331511&y=648329&z=3&sv=331511,648329&st=4&tl=~&bi=~&lu=N&ar=y",http://www.geograph.org.uk/mapper/coverage.php?zoom=10&layers=FTTB00000000000FT&lat=55.723509&lon=-3.09193,http://www.hill-bagging.co.uk/mountaindetails.php?qu=S&rf=1802,331511,648329,55.723509,-3.09193,NT3151148329,28.1,1802,,,1,0,1,0,1,0,1,0,0,0,0,0,1,1,0,0,0,0,0,0,0,0,0,0,0,0,0,0,0,0,0,1,0,1,0,1,0,0,0,0,0,0,0,0,0,0,0,0,0,0,1,0,0,0,0,0,0,0,0,0,0,0,0,0,0,0,0,POINT (331511.162407885 648328.4648006117)
1802,1803,Bowbeat Hill,,,28A,28A: Firth of Forth to the River Tweed,Moorfoot Hills,,P03:Glasgow to Galashiels and North Berwick,Midlothian/Scottish Borders,"Sim,D",73,337,626.0,2054,NT292469,NT 29283 46902,79.0,NT303475,547.0,no feature: ground 80m E of fence corner,,,,S,,10-Dec-12,,"http://www.streetmap.co.uk/newmap.srf?x=329282&y=646907&z=3&sv=329282,646907&st=4&tl=~&bi=~&lu=N&ar=y",http://www.geograph.org.uk/mapper/coverage.php?zoom=10&layers=FTTB00000000000FT&lat=55.710414&lon=-3.127042,http://www.hill-bagging.co.uk/mountaindetails.php?qu=S&rf=1803,329282,646907,55.710414,-3.127042,NT2928246907,28.1,1802,Blackhope Scar,,0,0,0,0,1,0,1,0,0,0,0,0,0,1,0,0,0,0,0,0,0,0,0,0,0,0,0,0,0,0,0,0,0,0,0,0,0,0,0,0,0,0,0,0,0,0,0,1,0,0,0,0,0,0,0,0,0,0,0,0,0,0,0,0,0,0,0,POINT (329282.0865361816 646906.455223836)
1805,1806,Jeffries Corse North Top,1805.0,Dundreich,28A,28A: Firth of Forth to the River Tweed,Moorfoot Hills,,P03:Glasgow to Galashiels and North Berwick,Midlothian/Scottish Borders,xDT,73,337 344,613.0,2011,NT281495,NT 28139 49538,16.0,NT279493,597.0,knoll,,,,S,,28-Mar-12,,"http://www.streetmap.co.uk/newmap.srf?x=328138&y=649543&z=3&sv=328138,649543&st=4&tl=~&bi=~&lu=N&ar=y",http://www.geograph.org.uk/mapper/coverage.php?zoom=10&layers=FTTB00000000000FT&lat=55.733926&lon=-3.145938,http://www.hill-bagging.co.uk/mountaindetails.php?qu=S&rf=1806,328138,649543,55.733926000000004,-3.145938,NT2813849543,28.1,1802,Blackhope Scar,,0,0,0,0,0,0,0,0,0,0,0,0,0,0,0,0,0,0,0,0,0,0,0,0,0,0,0,0,0,0,0,0,0,0,0,0,0,0,0,0,0,0,0,0,0,0,0,0,0,0,0,0,0,0,0,0,0,1,0,0,0,0,0,0,0,0,0,POINT (328138.0963504501 649542.508734558)
1806,1807,Scald Law,,,28A,28A: Firth of Forth to the River Tweed,,,P03:Glasgow to Galashiels and North Berwick,Midlothian,"Ma,5,DDew",65 66,344,579.0,1900,NT191610,NT 19169 61080,312.0,NT167541,267.0,tiny cairn 2m N of trig point,,,,S,,10-Dec-12,,"http://www.streetmap.co.uk/newmap.srf?x=319168&y=661085&z=3&sv=319168,661085&st=4&tl=~&bi=~&lu=N&ar=y",http://www.geograph.org.uk/mapper/coverage.php?zoom=10&layers=FTTB00000000000FT&lat=55.836192&lon=-3.292174,http://www.hill-bagging.co.uk/mountaindetails.php?qu=S&rf=1807,319168,661085,55.836192000000004,-3.2921739999999997,NT1916861085,28.1,1807,,,1,0,1,0,1,0,0,1,0,0,0,0,0,0,0,0,0,0,1,0,0,0,0,0,0,0,0,0,0,0,0,0,0,0,0,0,0,0,0,0,0,0,0,0,0,0,0,0,0,0,1,0,0,0,0,0,0,0,0,0,0,0,0,0,0,0,0,POINT (319167.9297325267 661084.8335817542)
1808,1809,East Cairn Hill,,,28A,28A: Firth of Forth to the River Tweed,,,P03:Glasgow to Galashiels and North Berwick,Edinburgh/Scottish Borders,"Ma,5,DDew,CoU",65 72,344,567.0,1860,NT128593,NT 12808 59315,169.0,NT143598,398.0,no feature 10m E of small cairn,,Abney level,,S,Edinburgh (UA),28-Oct-01,,"http://www.streetmap.co.uk/newmap.srf?x=312807&y=659320&z=3&sv=312807,659320&st=4&tl=~&bi=~&lu=N&ar=y",http://www.geograph.org.uk/mapper/coverage.php?zoom=10&layers=FTTB00000000000FT&lat=55.819229&lon=-3.393139,http://www.hill-bagging.co.uk/mountaindetails.php?qu=S&rf=1809,312807,659320,55.81922900000001,-3.393139,NT1280759320,28.1,1809,,,1,0,1,0,1,0,0,1,0,0,0,0,0,0,0,0,0,0,1,0,0,0,0,0,0,0,0,0,0,0,0,0,0,1,0,0,0,0,0,0,0,0,0,0,0,0,0,0,0,0,1,0,0,0,0,0,0,0,0,0,0,0,0,0,0,0,0,POINT (312806.8178056851 659319.751533387)
1809,1810,West Cairn Hill,,,28A,28A: Firth of Forth to the River Tweed,,,P03:Glasgow to Galashiels and North Berwick,Scottish Borders/West Lothian,"Hu,5,DDew,CoU",65 72,344,562.0,1844,NT107584,NT 10734 58399,132.0,NT118589,430.0,cairn by trig point,,,,S,West Lothian (UA),20-Nov-09,Formerly on Marilyn list,"http://www.streetmap.co.uk/newmap.srf?x=310733&y=658404&z=3&sv=310733,658404&st=4&tl=~&bi=~&lu=N&ar=y",http://www.geograph.org.uk/mapper/coverage.php?zoom=10&layers=FTTB00000000000FT&lat=55.810622&lon=-3.425928,http://www.hill-bagging.co.uk/mountaindetails.php?qu=S&rf=1810,310733,658404,55.810621999999995,-3.425928,NT1073358404,28.1,1809,East Cairn Hill,,0,0,1,0,1,0,0,1,0,0,0,0,0,0,0,0,0,0,1,0,0,0,0,0,0,0,0,0,0,0,0,0,0,1,0,0,0,0,0,0,0,0,0,0,0,0,0,0,0,0,1,0,0,0,0,0,0,0,0,0,0,0,0,0,0,0,0,POINT (310732.7456600484 658403.7509362519)
1812,1813,Meikle Says Law,,,28A,28A: Firth of Forth to the River Tweed,,,P04:Lammermuir - Dunbar to River Tweed,East Lothian/Scottish Borders,"Ma,5,DDew,CoH,CoU",67,345E,535.0,1755,NT581617,NT 58121 61734,267.0,NT396565,268.0,trig point,,Abney level,,S,East Lothian (UA) East Lothian (CoH),28-Oct-01,Berwickshire historic county top (hill 5455) is 100m to S on border,"http://www.streetmap.co.uk/newmap.srf?x=358121&y=661739&z=3&sv=358121,661739&st=4&tl=~&bi=~&lu=N&ar=y",http://www.geograph.org.uk/mapper/coverage.php?zoom=10&layers=FTTB00000000000FT&lat=55.847027&lon=-2.670406,http://www.hill-bagging.co.uk/mountaindetails.php?qu=S&rf=1813,358121,661739,55.847027000000004,-2.6704060000000003,NT5812161739,28.1,1813,,,1,0,1,0,1,0,0,1,0,0,0,0,0,0,0,0,0,0,1,0,0,0,0,0,0,0,0,0,0,0,0,1,0,1,0,0,0,0,0,0,0,0,0,0,0,0,0,0,0,0,1,0,0,0,0,0,0,0,0,0,0,0,0,0,0,0,0,POINT (358120.7628260585 661738.6644130483)
1814,1815,Black Hill,,,28A,28A: Firth of Forth to the River Tweed,,,P03:Glasgow to Galashiels and North Berwick,Midlothian,"Ma,5,DDew",65 66,344,501.0,1644,NT188631,NT 18825 63173,184.0,NT176624,317.0,cairn,ground 35m ENE may be as high,,,S,,10-Dec-12,,"http://www.streetmap.co.uk/newmap.srf?x=318824&y=663178&z=3&sv=318824,663178&st=4&tl=~&bi=~&lu=N&ar=y",http://www.geograph.org.uk/mapper/coverage.php?zoom=10&layers=FTTB00000000000FT&lat=55.854935&lon=-3.298292,http://www.hill-bagging.co.uk/mountaindetails.php?qu=S&rf=1815,318824,663178,55.854935,-3.298292,NT1882463178,28.1,1815,,,1,0,1,0,1,0,0,1,0,0,0,0,0,0,0,0,0,0,1,0,0,0,0,0,0,0,0,0,0,0,0,0,0,0,0,0,0,0,0,0,0,0,0,0,0,0,0,0,0,0,1,0,0,0,0,0,0,0,0,0,0,0,0,0,0,0,0,POINT (318823.9029664185 663177.8600061234)
1815,1816,Allermuir Hill,,,28A,28A: Firth of Forth to the River Tweed,,,P03:Glasgow to Galashiels and North Berwick,Edinburgh/Midlothian,"Ma,4",66,344 350,493.0,1617,NT227661,NT 22705 66170,235.0,NT198643,258.0,trig point by view indicator,,obvious summit,,S,,15-Jan-03,,"http://www.streetmap.co.uk/newmap.srf?x=322704&y=666175&z=3&sv=322704,666175&st=4&tl=~&bi=~&lu=N&ar=y",http://www.geograph.org.uk/mapper/coverage.php?zoom=10&layers=FTTB00000000000FT&lat=55.882495&lon=-3.237183,http://www.hill-bagging.co.uk/mountaindetails.php?qu=S&rf=1816,322704,666175,55.882495,-3.2371830000000004,NT2270466175,28.1,1816,,,1,0,1,0,1,0,0,0,0,0,0,0,0,0,0,0,0,0,0,0,1,0,0,0,0,0,0,0,0,0,0,0,0,0,0,0,0,0,0,0,0,0,0,0,0,0,0,0,0,0,1,0,0,0,0,0,0,0,0,0,0,0,0,0,0,0,0,POINT (322704.0094732076 666174.8999588322)
1818,1819,Spartleton,,,28A,28A: Firth of Forth to the River Tweed,,,P04:Lammermuir - Dunbar to River Tweed,East Lothian,"Ma,4",67,345E,468.0,1535,NT653655,NT 65320 65543,156.0,NT620682,312.0,cairn about 3m NW of trig point,,obvious summit,,S,,10-Dec-12,,"http://www.streetmap.co.uk/newmap.srf?x=365320&y=665548&z=3&sv=365320,665548&st=4&tl=~&bi=~&lu=N&ar=y",http://www.geograph.org.uk/mapper/coverage.php?zoom=10&layers=FTTB00000000000FT&lat=55.881822&lon=-2.555927,http://www.hill-bagging.co.uk/mountaindetails.php?qu=S&rf=1819,365320,665548,55.881822,-2.555927,NT6532065548,28.1,1819,,,1,0,1,0,1,0,0,0,0,0,0,0,0,0,0,0,0,0,0,0,1,0,0,0,0,0,0,0,0,0,0,0,0,0,0,0,0,0,0,0,0,0,0,0,0,0,0,0,0,0,1,0,0,0,0,0,0,0,0,0,0,0,0,0,0,0,0,POINT (365319.921342818 665547.7049423794)
1826,1827,Cairnpapple Hill,,,28A,28A: Firth of Forth to the River Tweed,,,P03:Glasgow to Galashiels and North Berwick,West Lothian,"Ma,3,CoH",65,349E,312.0,1024,NS987711,NS 98754 71148,165.0,NT000678,147.0,no feature 5m NE of trig point,trig point is located in a small depression; ground to 10m NE of trig point is c 5cm higher; large mound 140m E at NS 98896 71144 is c 1.5m lower; viewpoint 300m E at NS 99062 71126 is c 2.5m lower,Abney level,,S,West Lothian (CoH),28-Oct-01,,"http://www.streetmap.co.uk/newmap.srf?x=298752&y=671154&z=3&sv=298752,671154&st=4&tl=~&bi=~&lu=N&ar=y",http://www.geograph.org.uk/mapper/coverage.php?zoom=10&layers=FTTB00000000000FT&lat=55.922763&lon=-3.621771,http://www.hill-bagging.co.uk/mountaindetails.php?qu=S&rf=1827,298752,671154,55.922763,-3.621771,NS9875271154,28.1,1827,,,1,0,1,0,1,0,0,0,0,0,0,0,0,0,0,0,0,0,0,0,0,1,0,0,0,0,0,0,0,0,0,1,0,0,0,0,0,0,0,0,0,0,0,0,0,0,0,0,0,0,1,0,0,0,0,0,0,0,0,0,0,0,0,0,0,0,0,POINT (298752.5250434825 671153.1000203363)
1827,1828,Arthur's Seat,,,28A,28A: Firth of Forth to the River Tweed,,,P03:Glasgow to Galashiels and North Berwick,Edinburgh,"Ma,2",66,350,251.0,823,NT275729,NT 27534 72942,174.0,NT270726,77.0,rock by trig point,,obvious summit,,S,,28-Oct-01,,"http://www.streetmap.co.uk/newmap.srf?x=327533&y=672948&z=3&sv=327533,672948&st=4&tl=~&bi=~&lu=N&ar=y",http://www.geograph.org.uk/mapper/coverage.php?zoom=10&layers=FTTB00000000000FT&lat=55.94408&lon=-3.161824,http://www.hill-bagging.co.uk/mountaindetails.php?qu=S&rf=1828,327533,672948,55.94408000000001,-3.161824,NT2753372948,28.1,1828,,,1,0,1,0,1,0,0,0,0,0,0,0,0,0,0,0,0,0,0,0,0,0,1,0,0,0,0,0,0,0,0,0,0,0,0,0,0,0,0,0,0,0,0,0,0,0,0,0,0,0,1,0,0,0,0,0,0,0,0,0,0,0,0,0,0,0,0,POINT (327533.1363522144 672946.9942828626)
1828,1829,North Berwick Law,,,28A,28A: Firth of Forth to the River Tweed,,,P03:Glasgow to Galashiels and North Berwick,East Lothian,"Ma,1",66,351E,187.0,614,NT556842,NT 55638 84220,168.0,NT566800,19.0,rock 3m NE of trig point,highest point of rock on which trig point stands,,,S,,28-Oct-01,,"http://www.streetmap.co.uk/newmap.srf?x=355638&y=684226&z=3&sv=355638,684226&st=4&tl=~&bi=~&lu=N&ar=y",http://www.geograph.org.uk/mapper/coverage.php?zoom=10&layers=FTTB00000000000FT&lat=56.048824&lon=-2.713765,http://www.hill-bagging.co.uk/mountaindetails.php?qu=S&rf=1829,355638,684226,56.048823999999996,-2.713765,NT5563884226,28.1,1829,,,1,0,1,0,1,0,0,0,0,0,0,0,0,0,0,0,0,0,0,0,0,0,0,1,0,0,0,0,0,0,0,0,0,0,0,0,0,0,0,0,0,0,0,0,0,0,0,0,0,0,1,0,0,0,0,0,0,0,0,0,0,0,0,0,0,0,0,POINT (355637.7861393453 684225.1015032571)
5080,5081,Carnethy Hill,,,28A,28A: Firth of Forth to the River Tweed,,,P03:Glasgow to Galashiels and North Berwick,Midlothian,"Hu,5,DDew",66,344,573.0,1880,NT203619,NT 20384 61915,128.0,NT195615,445.0,cairn,,,,S,,20-Nov-11,,"http://www.streetmap.co.uk/newmap.srf?x=320383&y=661920&z=3&sv=320383,661920&st=4&tl=~&bi=~&lu=N&ar=y",http://www.geograph.org.uk/mapper/coverage.php?zoom=10&layers=FTTB00000000000FT&lat=55.843895&lon=-3.273025,http://www.hill-bagging.co.uk/mountaindetails.php?qu=S&rf=5081,320383,661920,55.843894999999996,-3.273025,NT2038361920,28.1,1807,Scald Law,,0,0,1,0,1,0,0,1,0,0,0,0,0,0,0,0,0,0,1,0,0,0,0,0,0,0,0,0,0,0,0,0,0,0,0,0,0,0,0,0,0,0,0,0,0,0,0,0,0,0,1,0,0,0,0,0,0,0,0,0,0,0,0,0,0,0,0,POINT (320382.9488310652 661919.8600984486)
5083,5084,Lammer Law,,,28A,28A: Firth of Forth to the River Tweed,,,P04:Lammermuir - Dunbar to River Tweed,East Lothian,"Hu,5,DDew",66,345E,529.0,1736,NT523618,NT 52361 61801,117.0,NT536604,412.0,cairn on mound 7m E of trig point,,,,S,,15-Mar-15,,"http://www.streetmap.co.uk/newmap.srf?x=352361&y=661806&z=3&sv=352361,661806&st=4&tl=~&bi=~&lu=N&ar=y",http://www.geograph.org.uk/mapper/coverage.php?zoom=10&layers=FTTB00000000000FT&lat=55.847094&lon=-2.762402,http://www.hill-bagging.co.uk/mountaindetails.php?qu=S&rf=5084,352361,661806,55.84709399999999,-2.7624020000000002,NT5236161806,28.1,1813,Meikle Says Law,,0,0,1,0,1,0,0,1,0,0,0,0,0,0,0,0,0,0,1,0,0,0,0,0,0,0,0,0,0,0,0,0,0,0,0,0,0,0,0,0,0,0,0,0,0,0,0,0,0,0,1,0,0,0,0,0,0,0,0,0,0,0,0,0,0,0,0,POINT (352360.608313138 661805.7485449101)
5088,5089,Wester Dod [Monynut Edge],,,28A,28A: Firth of Forth to the River Tweed,,,P04:Lammermuir - Dunbar to River Tweed,East Lothian,"Hu,4",67,345E 351E,416.0,1365,NT704681,NT 70479 68163,112.0,NT665698,304.0,no feature: heather between two small pools,,Abney level,,S,,14-Feb-14,,"http://www.streetmap.co.uk/newmap.srf?x=370479&y=668168&z=3&sv=370479,668168&st=4&tl=~&bi=~&lu=N&ar=y",http://www.geograph.org.uk/mapper/coverage.php?zoom=10&layers=FTTB00000000000FT&lat=55.905707&lon=-2.47375,http://www.hill-bagging.co.uk/mountaindetails.php?qu=S&rf=5089,370479,668168,55.90570699999999,-2.47375,NT7047968168,28.1,1819,Spartleton,,0,0,1,0,1,0,0,0,0,0,0,0,0,0,0,0,0,0,0,0,1,0,0,0,0,0,0,0,0,0,0,0,0,0,0,0,0,0,0,0,0,0,0,0,0,0,0,0,0,0,1,0,0,0,0,0,0,0,0,0,0,0,0,0,0,0,0,POINT (370479.0357242438 668167.7762359369)
5098,5099,Cocklaw Hill,,,28A,28A: Firth of Forth to the River Tweed,,,P04:Lammermuir - Dunbar to River Tweed,East Lothian,"Hu,3",67,351E,320.0,1050,NT719714,NT 71997 71414,130.0,NT709708,190.0,no feature: grass,ground 170m W at NT 71824 71410 is 50cm lower,Abney level,,S,,08-Jun-09,,"http://www.streetmap.co.uk/newmap.srf?x=371997&y=671419&z=3&sv=371997,671419&st=4&tl=~&bi=~&lu=N&ar=y",http://www.geograph.org.uk/mapper/coverage.php?zoom=10&layers=FTTB00000000000FT&lat=55.935007&lon=-2.449809,http://www.hill-bagging.co.uk/mountaindetails.php?qu=S&rf=5099,371997,671419,55.93500699999999,-2.449809,NT7199771419,28.1,1819,Spartleton,,0,0,1,0,1,0,0,0,0,0,0,0,0,0,0,0,0,0,0,0,0,1,0,0,0,0,0,0,0,0,0,0,0,0,0,0,0,0,0,0,0,0,0,0,0,0,0,0,0,0,1,0,0,0,0,0,0,0,0,0,0,0,0,0,0,0,0,POINT (371997.0605591284 671418.8081992712)
5104,5105,Traprain Law,,,28A,28A: Firth of Forth to the River Tweed,,,P04:Lammermuir - Dunbar to River Tweed,East Lothian,"Hu,2",67,351E,221.0,725,NT581746,NT 58165 74663,134.0,NT564729,87.0,shelter 10m N of trig point,,obvious summit,,S,,08-Jun-09,,"http://www.streetmap.co.uk/newmap.srf?x=358165&y=674669&z=3&sv=358165,674669&st=4&tl=~&bi=~&lu=N&ar=y",http://www.geograph.org.uk/mapper/coverage.php?zoom=10&layers=FTTB00000000000FT&lat=55.96319&lon=-2.671708,http://www.hill-bagging.co.uk/mountaindetails.php?qu=S&rf=5105,358165,674669,55.963190000000004,-2.671708,NT5816574669,28.1,1813,Meikle Says Law,,0,0,1,0,1,0,0,0,0,0,0,0,0,0,0,0,0,0,0,0,0,0,1,0,0,0,0,0,0,0,0,0,0,0,0,0,0,0,0,0,0,0,0,0,0,0,0,0,0,0,1,0,0,0,0,0,0,0,0,0,0,0,0,0,0,0,0,POINT (358164.8079122911 674667.936705243)
5105,5106,Airngath Hill,,,28A,28A: Firth of Forth to the River Tweed,,,P03:Glasgow to Galashiels and North Berwick,West Lothian,"Hu,1",65,349E,171.0,561,NT003791,,112.0,NT026774,59.0,,,,,S,,21-Dec-12,large scale maps indicate an alternative summit 110m E at NT005791,"http://www.streetmap.co.uk/newmap.srf?x=300300&y=679100&z=3&sv=300300,679100&st=4&tl=~&bi=~&lu=N&ar=y",http://www.geograph.org.uk/mapper/coverage.php?zoom=10&layers=FTTB00000000000FT&lat=55.994455&lon=-3.599957,http://www.hill-bagging.co.uk/mountaindetails.php?qu=S&rf=5106,300300,679100,55.994455,-3.599957,NT0030079100,28.1,1827,Cairnpapple Hill,,0,0,1,0,1,0,0,0,0,0,0,0,0,0,0,0,0,0,0,0,0,0,0,1,0,0,0,0,0,0,0,0,0,0,0,0,0,0,0,0,0,0,0,0,0,0,0,0,0,0,1,0,0,0,0,0,0,0,0,0,0,0,0,0,0,0,0,POINT (300300.2548195674 679099.4940234649)
5106,5107,Corstorphine Hill,,,28A,28A: Firth of Forth to the River Tweed,,,P03:Glasgow to Galashiels and North Berwick,Edinburgh,"Hu,1",66,350,162.0,531,NT205741,NT 20581 74150,117.0,NT210725,45.0,rock,ground 340m SSE at NT20700 73834 may be as high,,,S,,08-Jun-09,,"http://www.streetmap.co.uk/newmap.srf?x=320580&y=674156&z=3&sv=320580,674156&st=4&tl=~&bi=~&lu=N&ar=y",http://www.geograph.org.uk/mapper/coverage.php?zoom=10&layers=FTTB00000000000FT&lat=55.953832&lon=-3.273475,http://www.hill-bagging.co.uk/mountaindetails.php?qu=S&rf=5107,320580,674156,55.95383199999999,-3.273475,NT2058074156,28.1,1809,East Cairn Hill,,0,0,1,0,1,0,0,0,0,0,0,0,0,0,0,0,0,0,0,0,0,0,0,1,0,0,0,0,0,0,0,0,0,0,0,0,0,0,0,0,0,0,0,0,0,0,0,0,0,0,1,0,0,0,0,0,0,0,0,0,0,0,0,0,0,0,0,POINT (320580.0292131472 674155.1096575271)
5107,5108,Bass Rock,,,28A,28A: Firth of Forth to the River Tweed,Forth: River & Firth,Mono Tump island,Z04:Coastal Islands of Scotland,East Lothian,"Hu,1,SIB",67,351E,112.0,367,NT602874,NT 60254 87434,112.0,Sea,0.0,outcrop,outcrop to NE is lower,Abney level,,S,,08-Jun-09,,"http://www.streetmap.co.uk/newmap.srf?x=360254&y=687440&z=3&sv=360254,687440&st=4&tl=~&bi=~&lu=N&ar=y",http://www.geograph.org.uk/mapper/coverage.php?zoom=10&layers=FTTB00000000000FT&lat=56.078106&lon=-2.640143,http://www.hill-bagging.co.uk/mountaindetails.php?qu=S&rf=5108,360254,687440,56.078106000000005,-2.640143,NT6025487440,28.1,0,,,0,0,1,0,1,0,0,0,0,0,0,0,0,0,0,0,0,0,0,0,0,0,0,1,0,0,0,0,0,0,0,0,0,0,0,0,0,0,0,1,0,0,0,0,0,0,0,0,0,0,0,0,0,0,0,0,0,0,0,0,0,0,0,0,0,0,0,POINT (360253.8781566451 687439.1985604456)
5454,5455,Meikle Says Law (boundary),,,28A,28A: Firth of Forth to the River Tweed,,,P04:Lammermuir - Dunbar to River Tweed,East Lothian/Scottish Borders,CoH,67,345E,532.0,1745,NT581616,NT 58138 61657,0.0,NT581616,532.0,no feature,,,,S,Berwickshire (CoH),08-Jun-09,On boundary 100m S of trig pillar. Trig pillar is the East Lothian UA & historic county top,"http://www.streetmap.co.uk/newmap.srf?x=358138&y=661662&z=3&sv=358138,661662&st=4&tl=~&bi=~&lu=N&ar=y",http://www.geograph.org.uk/mapper/coverage.php?zoom=10&layers=FTTB00000000000FT&lat=55.846337&lon=-2.670123,http://www.hill-bagging.co.uk/mountaindetails.php?qu=S&rf=5455,358138,661662,55.846337,-2.670123,NT5813861662,28.1,1813,Meikle Says Law,,0,0,0,0,0,0,0,0,0,0,0,0,0,0,0,0,0,0,0,0,0,0,0,0,0,0,0,0,0,0,0,1,0,0,0,0,0,0,0,0,0,0,0,0,0,0,0,0,0,0,0,0,0,0,0,0,0,0,0,0,0,0,0,0,0,0,0,POINT (358137.7390603306 661661.6992430956)
7293,7294,Bowbeat Rig Head,,,28A,28A: Firth of Forth to the River Tweed,Moorfoot Hills,,P03:Glasgow to Galashiels and North Berwick,Midlothian/Scottish Borders,s5,73,337,585.0,1919,NT285474,,20.0,NT287471,565.0,,,,,S,,02-Feb-13,,"http://www.streetmap.co.uk/newmap.srf?x=328500&y=647400&z=3&sv=328500,647400&st=4&tl=~&bi=~&lu=N&ar=y",http://www.geograph.org.uk/mapper/coverage.php?zoom=10&layers=FTTB00000000000FT&lat=55.714731&lon=-3.139616,http://www.hill-bagging.co.uk/mountaindetails.php?qu=S&rf=7294,328500,647400,55.71473100000001,-3.139616,NT2850047400,28.1,1802,Blackhope Scar,,0,0,0,0,0,0,0,0,0,0,0,0,0,0,0,0,0,0,0,0,0,0,0,0,0,0,0,0,0,0,0,0,0,0,0,0,0,0,0,0,0,0,0,1,0,0,0,0,0,0,0,0,0,0,0,0,0,0,0,0,0,0,0,0,0,0,0,POINT (328499.9507749297 647399.7984521864)
7295,7296,South Black Hill,,,28A,28A: Firth of Forth to the River Tweed,,,P03:Glasgow to Galashiels and North Berwick,Midlothian,s5,65 66,344,563.0,1847,NT190605,NT 19068 60504,22.0,NT190606,541.0,wide shallow cairn,,,,S,,27-Nov-11,,"http://www.streetmap.co.uk/newmap.srf?x=319067&y=660509&z=3&sv=319067,660509&st=4&tl=~&bi=~&lu=N&ar=y",http://www.geograph.org.uk/mapper/coverage.php?zoom=10&layers=FTTB00000000000FT&lat=55.831001&lon=-3.293614,http://www.hill-bagging.co.uk/mountaindetails.php?qu=S&rf=7296,319067,660509,55.831001,-3.293614,NT1906760509,28.1,1807,Scald Law,,0,0,0,0,0,0,0,0,0,0,0,0,0,0,0,0,0,0,0,0,0,0,0,0,0,0,0,0,0,0,0,0,0,0,0,0,0,0,0,0,0,0,0,1,0,0,0,0,0,0,0,0,0,0,0,0,0,0,0,0,0,0,0,0,0,0,0,POINT (319066.9504428077 660508.8266360296)
7297,7298,West Kip,,,28A,28A: Firth of Forth to the River Tweed,,,P03:Glasgow to Galashiels and North Berwick,Midlothian,"5,DDew",65 66,344,551.0,1808,NT178605,NT 17812 60585,81.0,NT185609,470.0,no feature,,obvious summit,,S,,27-Nov-11,,"http://www.streetmap.co.uk/newmap.srf?x=317811&y=660590&z=3&sv=317811,660590&st=4&tl=~&bi=~&lu=N&ar=y",http://www.geograph.org.uk/mapper/coverage.php?zoom=10&layers=FTTB00000000000FT&lat=55.831516&lon=-3.313685,http://www.hill-bagging.co.uk/mountaindetails.php?qu=S&rf=7298,317811,660590,55.831516,-3.313685,NT1781160590,28.1,1807,Scald Law,,0,0,0,0,1,0,0,1,0,0,0,0,0,0,0,0,0,0,1,0,0,0,0,0,0,0,0,0,0,0,0,0,0,0,0,0,0,0,0,0,0,0,0,0,0,0,0,0,0,0,0,0,0,0,0,0,0,0,0,0,0,0,0,0,0,0,0,POINT (317810.8793503297 660589.814718699)
7308,7309,East Kip,,,28A,28A: Firth of Forth to the River Tweed,,,P03:Glasgow to Galashiels and North Berwick,Midlothian,"5,DDew",65 66,344,534.0,1752,NT183608,NT 18303 60858,35.0,NT181607,499.0,no feature,,obvious summit,,S,,27-Nov-11,,"http://www.streetmap.co.uk/newmap.srf?x=318302&y=660863&z=3&sv=318302,660863&st=4&tl=~&bi=~&lu=N&ar=y",http://www.geograph.org.uk/mapper/coverage.php?zoom=10&layers=FTTB00000000000FT&lat=55.834052&lon=-3.30593,http://www.hill-bagging.co.uk/mountaindetails.php?qu=S&rf=7309,318302,660863,55.834052,-3.3059300000000005,NT1830260863,28.1,1807,Scald Law,,0,0,0,0,1,0,0,1,0,0,0,0,0,0,0,0,0,0,1,0,0,0,0,0,0,0,0,0,0,0,0,0,0,0,0,0,0,0,0,0,0,0,0,0,0,0,0,0,0,0,0,0,0,0,0,0,0,0,0,0,0,0,0,0,0,0,0,POINT (318301.9358011275 660862.8474891823)
7310,7311,Huntly Cot Hills,,,28A,28A: Firth of Forth to the River Tweed,Moorfoot Hills,,P03:Glasgow to Galashiels and North Berwick,Midlothian/Scottish Borders,s5,66 73,345W,531.0,1742,NT313508,NT 31386 50801,25.0,NT311504,506.0,no feature: ground by fence,,,,S,,02-Feb-13,,"http://www.streetmap.co.uk/newmap.srf?x=331385&y=650806&z=3&sv=331385,650806&st=4&tl=~&bi=~&lu=N&ar=y",http://www.geograph.org.uk/mapper/coverage.php?zoom=10&layers=FTTB00000000000FT&lat=55.745744&lon=-3.094559,http://www.hill-bagging.co.uk/mountaindetails.php?qu=S&rf=7311,331385,650806,55.745743999999995,-3.094559,NT3138550806,28.1,1802,Blackhope Scar,,0,0,0,0,0,0,0,0,0,0,0,0,0,0,0,0,0,0,0,0,0,0,0,0,0,0,0,0,0,0,0,0,0,0,0,0,0,0,0,0,0,0,0,1,0,0,0,0,0,0,0,0,0,0,0,0,0,0,0,0,0,0,0,0,0,0,0,POINT (331385.1162320506 650805.5657219359)
7311,7312,Green Law,,,28A,28A: Firth of Forth to the River Tweed,,,P03:Glasgow to Galashiels and North Berwick,Midlothian,"5,DDew",65 66 72,344,529.0,1736,NT167595,NT 16730 59521,70.0,NT174603,459.0,no feature: grass,,obvious summit,,S,,02-Feb-13,,"http://www.streetmap.co.uk/newmap.srf?x=316729&y=659526&z=3&sv=316729,659526&st=4&tl=~&bi=~&lu=N&ar=y",http://www.geograph.org.uk/mapper/coverage.php?zoom=10&layers=FTTB00000000000FT&lat=55.821773&lon=-3.330627,http://www.hill-bagging.co.uk/mountaindetails.php?qu=S&rf=7312,316729,659526,55.821773,-3.330627,NT1672959526,28.1,1807,Scald Law,,0,0,0,0,1,0,0,1,0,0,0,0,0,0,0,0,0,0,1,0,0,0,0,0,0,0,0,0,0,0,0,0,0,0,0,0,0,0,0,0,0,0,0,0,0,0,0,0,0,0,0,0,0,0,0,0,0,0,0,0,0,0,0,0,0,0,0,POINT (316728.8833567019 659525.8194830129)
7312,7313,Spittal Hill,,,28A,28A: Firth of Forth to the River Tweed,,,P03:Glasgow to Galashiels and North Berwick,Midlothian,"5,DDew",65 66 72,344,526.0,1726,NT164586,NT 16499 58660,32.0,NT166592,494.0,no feature,,,,S,,27-Nov-11,,"http://www.streetmap.co.uk/newmap.srf?x=316498&y=658665&z=3&sv=316498,658665&st=4&tl=~&bi=~&lu=N&ar=y",http://www.geograph.org.uk/mapper/coverage.php?zoom=10&layers=FTTB00000000000FT&lat=55.813999&lon=-3.334048,http://www.hill-bagging.co.uk/mountaindetails.php?qu=S&rf=7313,316498,658665,55.813999,-3.334048,NT1649858665,28.1,1807,Scald Law,,0,0,0,0,1,0,0,1,0,0,0,0,0,0,0,0,0,0,1,0,0,0,0,0,0,0,0,0,0,0,0,0,0,0,0,0,0,0,0,0,0,0,0,0,0,0,0,0,0,0,0,0,0,0,0,0,0,0,0,0,0,0,0,0,0,0,0,POINT (316497.8871125232 658664.8054014178)
7316,7317,Craigengar,,,28A,28A: Firth of Forth to the River Tweed,,,P03:Glasgow to Galashiels and North Berwick,Scottish Borders/West Lothian,"5,DDew",65 72,344,519.0,1703,NT090550,NT 09016 55086,75.0,NT098556,444.0,stone shelter by fence junction,,,,S,,27-Nov-11,,"http://www.streetmap.co.uk/newmap.srf?x=309014&y=655091&z=3&sv=309014,655091&st=4&tl=~&bi=~&lu=N&ar=y",http://www.geograph.org.uk/mapper/coverage.php?zoom=10&layers=FTTB00000000000FT&lat=55.780543&lon=-3.452223,http://www.hill-bagging.co.uk/mountaindetails.php?qu=S&rf=7317,309014,655091,55.78054300000001,-3.4522230000000005,NT0901455091,28.1,1809,East Cairn Hill,,0,0,0,0,1,0,0,1,0,0,0,0,0,0,0,0,0,0,1,0,0,0,0,0,0,0,0,0,0,0,0,0,0,0,0,0,0,0,0,0,0,0,0,0,0,0,0,0,0,0,0,0,0,0,0,0,0,0,0,0,0,0,0,0,0,0,0,POINT (309014.7217550451 655090.6960645942)
7324,7325,Turnhouse Hill,,,28A,28A: Firth of Forth to the River Tweed,,,P03:Glasgow to Galashiels and North Berwick,Midlothian,"5,DDew",66,344,506.0,1660,NT212626,NT 21269 62659,79.0,NT207622,427.0,no feature 5m NE of cairn,,obvious summit,,S,,27-Nov-11,,"http://www.streetmap.co.uk/newmap.srf?x=321268&y=662664&z=3&sv=321268,662664&st=4&tl=~&bi=~&lu=N&ar=y",http://www.geograph.org.uk/mapper/coverage.php?zoom=10&layers=FTTB00000000000FT&lat=55.850723&lon=-3.259111,http://www.hill-bagging.co.uk/mountaindetails.php?qu=S&rf=7325,321268,662664,55.850722999999995,-3.259111,NT2126862664,28.1,1807,Scald Law,,0,0,0,0,1,0,0,1,0,0,0,0,0,0,0,0,0,0,1,0,0,0,0,0,0,0,0,0,0,0,0,0,0,0,0,0,0,0,0,0,0,0,0,0,0,0,0,0,0,0,0,0,0,0,0,0,0,0,0,0,0,0,0,0,0,0,0,POINT (321268.0006099103 662663.7971441619)
7327,7328,Harestone Hill,,,28A,28A: Firth of Forth to the River Tweed,,,P04:Lammermuir - Dunbar to River Tweed,East Lothian,s5,67,345E,504.0,1654,NT568623,NT 56818 62318,23.0,NT567619,481.0,cairn,,,,S,,27-Nov-11,,"http://www.streetmap.co.uk/newmap.srf?x=356818&y=662323&z=3&sv=356818,662323&st=4&tl=~&bi=~&lu=N&ar=y",http://www.geograph.org.uk/mapper/coverage.php?zoom=10&layers=FTTB00000000000FT&lat=55.852159&lon=-2.691308,http://www.hill-bagging.co.uk/mountaindetails.php?qu=S&rf=7328,356818,662323,55.85215899999999,-2.6913080000000003,NT5681862323,28.1,1813,Meikle Says Law,,0,0,0,0,0,0,0,0,0,0,0,0,0,0,0,0,0,0,0,0,0,0,0,0,0,0,0,0,0,0,0,0,0,0,0,0,0,0,0,0,0,0,0,1,0,0,0,0,0,0,0,0,0,0,0,0,0,0,0,0,0,0,0,0,0,0,0,POINT (356817.7070568564 662322.7053903071)
7332,7333,Cap Law,,,28A,28A: Firth of Forth to the River Tweed,,,P03:Glasgow to Galashiels and North Berwick,Midlothian,s4,65 66 72,344,497.0,1631,NT175599,NT 17569 59932,20.0,NT167599,477.0,no feature,,,,S,,27-Nov-11,,"http://www.streetmap.co.uk/newmap.srf?x=317568&y=659937&z=3&sv=317568,659937&st=4&tl=~&bi=~&lu=N&ar=y",http://www.geograph.org.uk/mapper/coverage.php?zoom=10&layers=FTTB00000000000FT&lat=55.825609&lon=-3.317365,http://www.hill-bagging.co.uk/mountaindetails.php?qu=S&rf=7333,317568,659937,55.825609,-3.317365,NT1756859937,28.1,1807,Scald Law,,0,0,0,0,0,0,0,0,0,0,0,0,0,0,0,0,0,0,0,0,0,0,0,0,0,0,0,0,0,0,0,0,0,0,0,0,0,0,0,0,0,0,0,0,1,0,0,0,0,0,0,0,0,0,0,0,0,0,0,0,0,0,0,0,0,0,0,POINT (317567.8740499596 659936.8249123025)
7339,7340,Bransly Hill,,,28A,28A: Firth of Forth to the River Tweed,,,P04:Lammermuir - Dunbar to River Tweed,East Lothian,3,67,345E 351E,398.0,1306,NT676699,NT 67687 69901,44.0,NT685697,354.0,no feature 200m SE of trig point,,,,S,,14-Feb-14,Subhump status deleted February 2014,"http://www.streetmap.co.uk/newmap.srf?x=367687&y=669906&z=3&sv=367687,669906&st=4&tl=~&bi=~&lu=N&ar=y",http://www.geograph.org.uk/mapper/coverage.php?zoom=10&layers=FTTB00000000000FT&lat=55.921142&lon=-2.518614,http://www.hill-bagging.co.uk/mountaindetails.php?qu=S&rf=7340,367687,669906,55.921142,-2.518614,NT6768769906,28.1,1819,Spartleton,,0,0,0,0,1,0,0,0,0,0,0,0,0,0,0,0,0,0,0,0,0,1,0,0,0,0,0,0,0,0,0,0,0,0,0,0,0,0,0,0,0,0,0,0,0,0,0,0,0,0,0,0,0,0,0,0,0,0,0,0,0,0,0,0,0,0,0,POINT (367686.9976681433 669905.7771580208)
7344,7345,Deuchrie Dod,,,28A,28A: Firth of Forth to the River Tweed,,,P04:Lammermuir - Dunbar to River Tweed,East Lothian,"2,sHu",67,351E,297.0,974,NT626722,NT 62693 72236,96.0,NT631714,201.0,trig point,,,,S,,27-Nov-11,,"http://www.streetmap.co.uk/newmap.srf?x=362693&y=672241&z=3&sv=362693,672241&st=4&tl=~&bi=~&lu=N&ar=y",http://www.geograph.org.uk/mapper/coverage.php?zoom=10&layers=FTTB00000000000FT&lat=55.941759&lon=-2.598844,http://www.hill-bagging.co.uk/mountaindetails.php?qu=S&rf=7345,362693,672241,55.941759,-2.5988439999999997,NT6269372241,28.1,1819,Spartleton,,0,0,0,0,1,0,0,0,0,0,0,0,0,0,0,0,0,0,0,0,0,0,1,0,0,0,0,0,0,0,0,0,0,0,0,0,0,0,0,0,0,1,0,0,0,0,0,0,0,0,0,0,0,0,0,0,0,0,0,0,0,0,0,0,0,0,0,POINT (362692.8596507335 672240.9076292014)
7346,7347,Skid Hill [Garleton Hills],,,28A,28A: Firth of Forth to the River Tweed,Moorfoot Hills,,P03:Glasgow to Galashiels and North Berwick,East Lothian,"1,sHu",66,351W,186.0,610,NT507764,NT 50729 76431,98.0,NT426719,88.0,ground 2m from trig point,,obvious summit,,S,,02-Feb-13,,"http://www.streetmap.co.uk/newmap.srf?x=350729&y=676436&z=3&sv=350729,676436&st=4&tl=~&bi=~&lu=N&ar=y",http://www.geograph.org.uk/mapper/coverage.php?zoom=10&layers=FTTB00000000000FT&lat=55.978367&lon=-2.791135,http://www.hill-bagging.co.uk/mountaindetails.php?qu=S&rf=7347,350729,676436,55.978367000000006,-2.7911349999999997,NT5072976436,28.1,1802,Blackhope Scar,,0,0,0,0,1,0,0,0,0,0,0,0,0,0,0,0,0,0,0,0,0,0,0,1,0,0,0,0,0,0,0,0,0,0,0,0,0,0,0,0,0,1,0,0,0,0,0,0,0,0,1,0,0,0,0,0,0,0,0,0,0,0,0,0,0,0,0,POINT (350728.6713772861 676435.979148607)
13763,13764,Castlelaw Hill,,,28A,28A: Firth of Forth to the River Tweed,,,P03:Glasgow to Galashiels and North Berwick,Midlothian,4,66,344,488.0,1601,NT224647,NT 22472 64778,81.0,NT225657,407.0,no feature: ground near pile of stones,,,,S,,20-Jan-12,,"http://www.streetmap.co.uk/newmap.srf?x=322471&y=664783&z=3&sv=322471,664783&st=4&tl=~&bi=~&lu=N&ar=y",http://www.geograph.org.uk/mapper/coverage.php?zoom=10&layers=FTTB00000000000FT&lat=55.869953&lon=-3.240508,http://www.hill-bagging.co.uk/mountaindetails.php?qu=S&rf=13764,322471,664783,55.869953,-3.240508,NT2247164783,28.1,1816,Allermuir Hill,,0,0,0,0,1,0,0,0,0,0,0,0,0,0,0,0,0,0,0,0,1,0,0,0,0,0,0,0,0,0,0,0,0,0,0,0,0,0,0,0,0,0,0,0,0,0,0,0,0,0,0,0,0,0,0,0,0,0,0,0,0,0,0,0,0,0,0,POINT (322470.9934299068 664782.8416359499)
13775,13776,Cock Rig,,,28A,28A: Firth of Forth to the River Tweed,,,P03:Glasgow to Galashiels and North Berwick,Midlothian,4,65 72,344,479.0,1572,NT152593,NT 15244 59358,60.0,NT164602,419.0,no feature: ground just N of wall,,,,S,,14-Feb-15,,"http://www.streetmap.co.uk/newmap.srf?x=315243&y=659363&z=3&sv=315243,659363&st=4&tl=~&bi=~&lu=N&ar=y",http://www.geograph.org.uk/mapper/coverage.php?zoom=10&layers=FTTB00000000000FT&lat=55.82005&lon=-3.354287,http://www.hill-bagging.co.uk/mountaindetails.php?qu=S&rf=13776,315243,659363,55.82005,-3.3542870000000002,NT1524359363,28.1,1807,Scald Law,,0,0,0,0,1,0,0,0,0,0,0,0,0,0,0,0,0,0,0,0,1,0,0,0,0,0,0,0,0,0,0,0,0,0,0,0,0,0,0,0,0,0,0,0,0,0,0,0,0,0,0,0,0,0,0,0,0,0,0,0,0,0,0,0,0,0,0,POINT (315242.832204747 659362.8172574142)
13779,13780,Caerketton Hill,,,28A,28A: Firth of Forth to the River Tweed,,,P03:Glasgow to Galashiels and North Berwick,Edinburgh/Midlothian,4,66,344 350,478.0,1568,NT235661,NT 23557 66173,65.0,NT232663,413.0,no feature,cairn on alternative summit 150m ENE is at NT 23698 66212,,,S,,20-Jan-12,alternative summit at NT237662,"http://www.streetmap.co.uk/newmap.srf?x=323556&y=666178&z=3&sv=323556,666178&st=4&tl=~&bi=~&lu=N&ar=y",http://www.geograph.org.uk/mapper/coverage.php?zoom=10&layers=FTTB00000000000FT&lat=55.882658&lon=-3.223567,http://www.hill-bagging.co.uk/mountaindetails.php?qu=S&rf=13780,323556,666178,55.882658,-3.2235669999999996,NT2355666178,28.1,1816,Allermuir Hill,,0,0,0,0,1,0,0,0,0,0,0,0,0,0,0,0,0,0,0,0,1,0,0,0,0,0,0,0,0,0,0,0,0,0,0,0,0,0,0,0,0,0,0,0,0,0,0,0,0,0,0,0,0,0,0,0,0,0,0,0,0,0,0,0,0,0,0,POINT (323556.057812447 666177.8923890251)
13780,13781,Patie's Hill,,,28A,28A: Firth of Forth to the River Tweed,,,P03:Glasgow to Galashiels and North Berwick,Midlothian,4,65 66 72,344,478.0,1568,NT162574,NT 16280 57417,35.0,NT161577,443.0,no feature,,,,S,,20-Jan-12,,"http://www.streetmap.co.uk/newmap.srf?x=316279&y=657422&z=3&sv=316279,657422&st=4&tl=~&bi=~&lu=N&ar=y",http://www.geograph.org.uk/mapper/coverage.php?zoom=10&layers=FTTB00000000000FT&lat=55.802795&lon=-3.337159,http://www.hill-bagging.co.uk/mountaindetails.php?qu=S&rf=13781,316279,657422,55.802794999999996,-3.3371589999999998,NT1627957422,28.1,1807,Scald Law,,0,0,0,0,1,0,0,0,0,0,0,0,0,0,0,0,0,0,0,0,1,0,0,0,0,0,0,0,0,0,0,0,0,0,0,0,0,0,0,0,0,0,0,0,0,0,0,0,0,0,0,0,0,0,0,0,0,0,0,0,0,0,0,0,0,0,0,POINT (316278.8652763422 657421.7179706466)
13798,13799,Torfichen Hill,,,28A,28A: Firth of Forth to the River Tweed,Moorfoot Hills,,P03:Glasgow to Galashiels and North Berwick,Midlothian/Scottish Borders,4,66 73,345W,468.0,1535,NT335526,NT 33584 52687,32.0,NT331527,436.0,no feature,flat grassy summit area,Abney level,,S,,20-Jan-12,,"http://www.streetmap.co.uk/newmap.srf?x=333583&y=652692&z=3&sv=333583,652692&st=4&tl=~&bi=~&lu=N&ar=y",http://www.geograph.org.uk/mapper/coverage.php?zoom=10&layers=FTTB00000000000FT&lat=55.762994&lon=-3.060011,http://www.hill-bagging.co.uk/mountaindetails.php?qu=S&rf=13799,333583,652692,55.76299399999999,-3.0600110000000003,NT3358352692,28.1,1802,Blackhope Scar,,0,0,0,0,1,0,0,0,0,0,0,0,0,0,0,0,0,0,0,0,1,0,0,0,0,0,0,0,0,0,0,0,0,0,0,0,0,0,0,0,0,0,0,0,0,0,0,0,0,0,0,0,0,0,0,0,0,0,0,0,0,0,0,0,0,0,0,POINT (333583.2176820458 652691.5875348096)
13827,13828,Capelaw Hill,,,28A,28A: Firth of Forth to the River Tweed,,,P03:Glasgow to Galashiels and North Berwick,Edinburgh,4,66,344,454.0,1489,NT216659,NT 21617 65954,54.0,NT222660,400.0,stone,flat summit area,Abney level,,S,,20-Jan-12,,"http://www.streetmap.co.uk/newmap.srf?x=321616&y=665959&z=3&sv=321616,665959&st=4&tl=~&bi=~&lu=N&ar=y",http://www.geograph.org.uk/mapper/coverage.php?zoom=10&layers=FTTB00000000000FT&lat=55.880379&lon=-3.254508,http://www.hill-bagging.co.uk/mountaindetails.php?qu=S&rf=13828,321616,665959,55.880379000000005,-3.254508,NT2161665959,28.1,1816,Allermuir Hill,,0,0,0,0,1,0,0,0,0,0,0,0,0,0,0,0,0,0,0,0,1,0,0,0,0,0,0,0,0,0,0,0,0,0,0,0,0,0,0,0,0,0,0,0,0,0,0,0,0,0,0,0,0,0,0,0,0,0,0,0,0,0,0,0,0,0,0,POINT (321616.0034832453 665958.9296003933)
13832,13833,Hare Hill,,,28A,28A: Firth of Forth to the River Tweed,,,P03:Glasgow to Galashiels and North Berwick,Midlothian,4,65 66,344,449.0,1473,NT171620,NT 17161 61996,45.0,NT167613,404.0,pile of stones,ground by cairn 120m SSW at NT 17121 61884 and ground by cairn 90m SW at NT 17105 61925 may be as high,,,S,,20-Jan-12,,"http://www.streetmap.co.uk/newmap.srf?x=317160&y=662001&z=3&sv=317160,662001&st=4&tl=~&bi=~&lu=N&ar=y",http://www.geograph.org.uk/mapper/coverage.php?zoom=10&layers=FTTB00000000000FT&lat=55.844079&lon=-3.324506,http://www.hill-bagging.co.uk/mountaindetails.php?qu=S&rf=13833,317160,662001,55.844079,-3.324506,NT1716062001,28.1,1807,Scald Law,,0,0,0,0,1,0,0,0,0,0,0,0,0,0,0,0,0,0,0,0,1,0,0,0,0,0,0,0,0,0,0,0,0,0,0,0,0,0,0,0,0,0,0,0,0,0,0,0,0,0,0,0,0,0,0,0,0,0,0,0,0,0,0,0,0,0,0,POINT (317159.8632612199 662000.8246964501)
13838,13839,Killpallet Rig,,,28A,28A: Firth of Forth to the River Tweed,,,P04:Lammermuir - Dunbar to River Tweed,East Lothian,4,67,345E,447.0,1467,NT622604,,30.0,NT604606,417.0,,,,,S,,20-Jan-12,,"http://www.streetmap.co.uk/newmap.srf?x=362200&y=660400&z=3&sv=362200,660400&st=4&tl=~&bi=~&lu=N&ar=y",http://www.geograph.org.uk/mapper/coverage.php?zoom=10&layers=FTTB00000000000FT&lat=55.835335&lon=-2.60508,http://www.hill-bagging.co.uk/mountaindetails.php?qu=S&rf=13839,362200,660400,55.835335,-2.60508,NT6220060400,28.1,1813,Meikle Says Law,,0,0,0,0,1,0,0,0,0,0,0,0,0,0,0,0,0,0,0,0,1,0,0,0,0,0,0,0,0,0,0,0,0,0,0,0,0,0,0,0,0,0,0,0,0,0,0,0,0,0,0,0,0,0,0,0,0,0,0,0,0,0,0,0,0,0,0,POINT (362199.7321690517 660399.7046683768)
13844,13845,Mealowther,,,28A,28A: Firth of Forth to the River Tweed,,,P03:Glasgow to Galashiels and North Berwick,West Lothian,4,65 72,344,444.0,1457,NT079559,NT 07931 55955,35.0,NT082564,409.0,no feature,,,,S,,20-Jan-12,,"http://www.streetmap.co.uk/newmap.srf?x=307929&y=655960&z=3&sv=307929,655960&st=4&tl=~&bi=~&lu=N&ar=y",http://www.geograph.org.uk/mapper/coverage.php?zoom=10&layers=FTTB00000000000FT&lat=55.788143&lon=-3.46981,http://www.hill-bagging.co.uk/mountaindetails.php?qu=S&rf=13845,307929,655960,55.788143000000005,-3.46981,NT0792955960,28.1,1809,East Cairn Hill,,0,0,0,0,1,0,0,0,0,0,0,0,0,0,0,0,0,0,0,0,1,0,0,0,0,0,0,0,0,0,0,0,0,0,0,0,0,0,0,0,0,0,0,0,0,0,0,0,0,0,0,0,0,0,0,0,0,0,0,0,0,0,0,0,0,0,0,POINT (307929.6987086475 655959.7143058908)
13850,13851,Redstone Rig,,,28A,28A: Firth of Forth to the River Tweed,,,P04:Lammermuir - Dunbar to River Tweed,East Lothian,4,67,345E,441.0,1447,NT607644,NT 60769 64439,54.0,NT599647,387.0,cairn,,,,S,,07-Mar-17,,"http://www.streetmap.co.uk/newmap.srf?x=360769&y=664444&z=3&sv=360769,664444&st=4&tl=~&bi=~&lu=N&ar=y",http://www.geograph.org.uk/mapper/coverage.php?zoom=10&layers=FTTB00000000000FT&lat=55.871553&lon=-2.628511,http://www.hill-bagging.co.uk/mountaindetails.php?qu=S&rf=13851,360769,664444,55.871553000000006,-2.628511,NT6076964444,28.1,1813,Meikle Says Law,,0,0,0,0,1,0,0,0,0,0,0,0,0,0,0,0,0,0,0,0,1,0,0,0,0,0,0,0,0,0,0,0,0,0,0,0,0,0,0,0,0,0,0,0,0,0,0,0,0,0,0,0,0,0,0,0,0,0,0,0,0,0,0,0,0,0,0,POINT (360768.7834323455 664443.6818512371)
13866,13867,Wull Muir,,,28A,28A: Firth of Forth to the River Tweed,Moorfoot Hills,,P03:Glasgow to Galashiels and North Berwick,Midlothian/Scottish Borders,4,66 73,345W,433.0,1421,NT353544,NT 35311 54471,33.0,NT349541,400.0,rocks W of fence junction,,obvious summit,,S,,20-Jan-12,,"http://www.streetmap.co.uk/newmap.srf?x=335310&y=654476&z=3&sv=335310,654476&st=4&tl=~&bi=~&lu=N&ar=y",http://www.geograph.org.uk/mapper/coverage.php?zoom=10&layers=FTTB00000000000FT&lat=55.779255&lon=-3.032917,http://www.hill-bagging.co.uk/mountaindetails.php?qu=S&rf=13867,335310,654476,55.779255000000006,-3.032917,NT3531054476,28.1,1802,Blackhope Scar,,0,0,0,0,1,0,0,0,0,0,0,0,0,0,0,0,0,0,0,0,1,0,0,0,0,0,0,0,0,0,0,0,0,0,0,0,0,0,0,0,0,0,0,0,0,0,0,0,0,0,0,0,0,0,0,0,0,0,0,0,0,0,0,0,0,0,0,POINT (335310.2680180696 654475.5918825265)
13872,13873,Penshiel Hill,,,28A,28A: Firth of Forth to the River Tweed,,,P04:Lammermuir - Dunbar to River Tweed,East Lothian,4,67,345E,427.0,1401,NT631628,,61.0,NT622629,366.0,,,,,S,,20-Jan-12,,"http://www.streetmap.co.uk/newmap.srf?x=363100&y=662800&z=3&sv=363100,662800&st=4&tl=~&bi=~&lu=N&ar=y",http://www.geograph.org.uk/mapper/coverage.php?zoom=10&layers=FTTB00000000000FT&lat=55.856967&lon=-2.59104,http://www.hill-bagging.co.uk/mountaindetails.php?qu=S&rf=13873,363100,662800,55.856967000000004,-2.59104,NT6310062800,28.1,1813,Meikle Says Law,,0,0,0,0,1,0,0,0,0,0,0,0,0,0,0,0,0,0,0,0,1,0,0,0,0,0,0,0,0,0,0,0,0,0,0,0,0,0,0,0,0,0,0,0,0,0,0,0,0,0,0,0,0,0,0,0,0,0,0,0,0,0,0,0,0,0,0,POINT (363099.6659876011 662799.6529591208)
13881,13882,Harbour Hill,,,28A,28A: Firth of Forth to the River Tweed,,,P03:Glasgow to Galashiels and North Berwick,Midlothian,4,66,344,421.0,1381,NT207653,NT 20733 65352,64.0,NT209657,357.0,no feature,,Abney level,,S,,20-Jan-12,,"http://www.streetmap.co.uk/newmap.srf?x=320732&y=665357&z=3&sv=320732,665357&st=4&tl=~&bi=~&lu=N&ar=y",http://www.geograph.org.uk/mapper/coverage.php?zoom=10&layers=FTTB00000000000FT&lat=55.874826&lon=-3.268459,http://www.hill-bagging.co.uk/mountaindetails.php?qu=S&rf=13882,320732,665357,55.874826,-3.268459,NT2073265357,28.1,1816,Allermuir Hill,,0,0,0,0,1,0,0,0,0,0,0,0,0,0,0,0,0,0,0,0,1,0,0,0,0,0,0,0,0,0,0,0,0,0,0,0,0,0,0,0,0,0,0,0,0,0,0,0,0,0,0,0,0,0,0,0,0,0,0,0,0,0,0,0,0,0,0,POINT (320731.9466968881 665356.8590108064)
13905,13906,Bell's Hill,,,28A,28A: Firth of Forth to the River Tweed,,,P03:Glasgow to Galashiels and North Berwick,Midlothian,4,66,344,406.0,1332,NT205643,NT 20517 64346,57.0,NT203650,349.0,stone,,Abney level,,S,,30-Jan-15,,"http://www.streetmap.co.uk/newmap.srf?x=320516&y=664351&z=3&sv=320516,664351&st=4&tl=~&bi=~&lu=N&ar=y",http://www.geograph.org.uk/mapper/coverage.php?zoom=10&layers=FTTB00000000000FT&lat=55.865754&lon=-3.271614,http://www.hill-bagging.co.uk/mountaindetails.php?qu=S&rf=13906,320516,664351,55.865754,-3.271614,NT2051664351,28.1,1816,Allermuir Hill,,0,0,0,0,1,0,0,0,0,0,0,0,0,0,0,0,0,0,0,0,1,0,0,0,0,0,0,0,0,0,0,0,0,0,0,0,0,0,0,0,0,0,0,0,0,0,0,0,0,0,0,0,0,0,0,0,0,0,0,0,0,0,0,0,0,0,0,POINT (320515.9981013185 664350.8767765409)
13913,13914,Rangely Kip,,,28A,28A: Firth of Forth to the River Tweed,,,P04:Lammermuir - Dunbar to River Tweed,East Lothian,4,67,345E,400.0,1312,NT606671,NT 60608 67105,42.0,NT606665,358.0,trig point,,,,S,,20-Jan-12,,"http://www.streetmap.co.uk/newmap.srf?x=360608&y=667110&z=3&sv=360608,667110&st=4&tl=~&bi=~&lu=N&ar=y",http://www.geograph.org.uk/mapper/coverage.php?zoom=10&layers=FTTB00000000000FT&lat=55.895493&lon=-2.631472,http://www.hill-bagging.co.uk/mountaindetails.php?qu=S&rf=13914,360608,667110,55.895493,-2.631472,NT6060867110,28.1,1813,Meikle Says Law,,0,0,0,0,1,0,0,0,0,0,0,0,0,0,0,0,0,0,0,0,1,0,0,0,0,0,0,0,0,0,0,0,0,0,0,0,0,0,0,0,0,0,0,0,0,0,0,0,0,0,0,0,0,0,0,0,0,0,0,0,0,0,0,0,0,0,0,POINT (360607.8214985523 667109.7948286311)
13915,13916,Clints Dod,,,28A,28A: Firth of Forth to the River Tweed,,,P04:Lammermuir - Dunbar to River Tweed,East Lothian,3,67,345E 351E,399.0,1309,NT624687,NT 62441 68698,49.0,NT639668,350.0,cairn,flat summit area,,,S,,20-Jan-12,,"http://www.streetmap.co.uk/newmap.srf?x=362441&y=668703&z=3&sv=362441,668703&st=4&tl=~&bi=~&lu=N&ar=y",http://www.geograph.org.uk/mapper/coverage.php?zoom=10&layers=FTTB00000000000FT&lat=55.909952&lon=-2.602385,http://www.hill-bagging.co.uk/mountaindetails.php?qu=S&rf=13916,362441,668703,55.909952000000004,-2.602385,NT6244168703,28.1,1819,Spartleton,,0,0,0,0,1,0,0,0,0,0,0,0,0,0,0,0,0,0,0,0,0,1,0,0,0,0,0,0,0,0,0,0,0,0,0,0,0,0,0,0,0,0,0,0,0,0,0,0,0,0,0,0,0,0,0,0,0,0,0,0,0,0,0,0,0,0,0,POINT (362440.8382234406 668702.8067099433)
13919,13920,Hare Law,,,28A,28A: Firth of Forth to the River Tweed,,,P04:Lammermuir - Dunbar to River Tweed,East Lothian,3,66,345E,398.0,1306,NT545625,NT 54512 62538,40.0,NT535625,358.0,no feature: ground near fence,,,,S,,20-Jan-12,,"http://www.streetmap.co.uk/newmap.srf?x=354512&y=662543&z=3&sv=354512,662543&st=4&tl=~&bi=~&lu=N&ar=y",http://www.geograph.org.uk/mapper/coverage.php?zoom=10&layers=FTTB00000000000FT&lat=55.853923&lon=-2.728175,http://www.hill-bagging.co.uk/mountaindetails.php?qu=S&rf=13920,354512,662543,55.853922999999995,-2.728175,NT5451262543,28.1,1813,Meikle Says Law,,0,0,0,0,1,0,0,0,0,0,0,0,0,0,0,0,0,0,0,0,0,1,0,0,0,0,0,0,0,0,0,0,0,0,0,0,0,0,0,0,0,0,0,0,0,0,0,0,0,0,0,0,0,0,0,0,0,0,0,0,0,0,0,0,0,0,0,POINT (354511.6857234538 662542.7006754283)
13948,13949,Soutra Hill,,,28A,28A: Firth of Forth to the River Tweed,,,P04:Lammermuir - Dunbar to River Tweed,Midlothian/Scottish Borders,3,66 73,345W,377.0,1237,NT450580,NT 45068 57998,42.0,NT465586,335.0,small boulder by small shallow excavation,,Abney level,,S,,20-Jan-12,,"http://www.streetmap.co.uk/newmap.srf?x=345068&y=658003&z=3&sv=345068,658003&st=4&tl=~&bi=~&lu=N&ar=y",http://www.geograph.org.uk/mapper/coverage.php?zoom=10&layers=FTTB00000000000FT&lat=55.812151&lon=-2.878093,http://www.hill-bagging.co.uk/mountaindetails.php?qu=S&rf=13949,345068,658003,55.812151,-2.8780930000000002,NT4506858003,28.1,1813,Meikle Says Law,,0,0,0,0,1,0,0,0,0,0,0,0,0,0,0,0,0,0,0,0,0,1,0,0,0,0,0,0,0,0,0,0,0,0,0,0,0,0,0,0,0,0,0,0,0,0,0,0,0,0,0,0,0,0,0,0,0,0,0,0,0,0,0,0,0,0,0,POINT (345067.4811665426 658002.6994423862)
13963,13964,Dod Law,,,28A,28A: Firth of Forth to the River Tweed,,,P04:Lammermuir - Dunbar to River Tweed,East Lothian,3,67,345E,369.0,1211,NT568646,NT 56845 64605,31.0,NT571644,338.0,no feature: pasture,,,,S,,20-Jan-12,,"http://www.streetmap.co.uk/newmap.srf?x=356845&y=664610&z=3&sv=356845,664610&st=4&tl=~&bi=~&lu=N&ar=y",http://www.geograph.org.uk/mapper/coverage.php?zoom=10&layers=FTTB00000000000FT&lat=55.872709&lon=-2.691241,http://www.hill-bagging.co.uk/mountaindetails.php?qu=S&rf=13964,356845,664610,55.87270899999999,-2.6912409999999998,NT5684564610,28.1,1813,Meikle Says Law,,0,0,0,0,1,0,0,0,0,0,0,0,0,0,0,0,0,0,0,0,0,1,0,0,0,0,0,0,0,0,0,0,0,0,0,0,0,0,0,0,0,0,0,0,0,0,0,0,0,0,0,0,0,0,0,0,0,0,0,0,0,0,0,0,0,0,0,POINT (356844.7496615232 664609.7779269384)
13999,14000,Leven Seat,,,28A,28A: Firth of Forth to the River Tweed,,,P03:Glasgow to Galashiels and North Berwick,West Lothian,3,65 72,343,356.0,1168,NS946575,NS 94642 57589,38.0,NS952577,318.0,trig point,,,,S,,20-Jan-12,,"http://www.streetmap.co.uk/newmap.srf?x=294640&y=657594&z=3&sv=294640,657594&st=4&tl=~&bi=~&lu=N&ar=y",http://www.geograph.org.uk/mapper/coverage.php?zoom=10&layers=FTTB00000000000FT&lat=55.800104&lon=-3.68227,http://www.hill-bagging.co.uk/mountaindetails.php?qu=S&rf=14000,294640,657594,55.800104000000005,-3.6822699999999995,NS9464057594,28.1,1809,East Cairn Hill,,0,0,0,0,1,0,0,0,0,0,0,0,0,0,0,0,0,0,0,0,0,1,0,0,0,0,0,0,0,0,0,0,0,0,0,0,0,0,0,0,0,0,0,0,0,0,0,0,0,0,0,0,0,0,0,0,0,0,0,0,0,0,0,0,0,0,0,POINT (294640.4310011441 657593.8834166559)
14000,14001,Watch Law,,,28A,28A: Firth of Forth to the River Tweed,,,P04:Lammermuir - Dunbar to River Tweed,East Lothian,3,67,351E,356.0,1168,NT658703,,32.0,NT638706,324.0,,ill-defined summit area,,,S,,20-Jan-12,,"http://www.streetmap.co.uk/newmap.srf?x=365800&y=670300&z=3&sv=365800,670300&st=4&tl=~&bi=~&lu=N&ar=y",http://www.geograph.org.uk/mapper/coverage.php?zoom=10&layers=FTTB00000000000FT&lat=55.924549&lon=-2.548861,http://www.hill-bagging.co.uk/mountaindetails.php?qu=S&rf=14001,365800,670300,55.924549,-2.548861,NT6580070300,28.1,1819,Spartleton,,0,0,0,0,1,0,0,0,0,0,0,0,0,0,0,0,0,0,0,0,0,1,0,0,0,0,0,0,0,0,0,0,0,0,0,0,0,0,0,0,0,0,0,0,0,0,0,0,0,0,0,0,0,0,0,0,0,0,0,0,0,0,0,0,0,0,0,POINT (365799.7034994858 670299.559631129)
14011,14012,Auchinoon Hill,,,28A,28A: Firth of Forth to the River Tweed,,,P03:Glasgow to Galashiels and North Berwick,West Lothian,3,65,344,351.0,1152,NT093625,NT 09331 62511,75.0,NT087608,276.0,upright stone,flat summit area,,,S,,15-Mar-15,,"http://www.streetmap.co.uk/newmap.srf?x=309330&y=662516&z=3&sv=309330,662516&st=4&tl=~&bi=~&lu=N&ar=y",http://www.geograph.org.uk/mapper/coverage.php?zoom=10&layers=FTTB00000000000FT&lat=55.847296&lon=-3.44968,http://www.hill-bagging.co.uk/mountaindetails.php?qu=S&rf=14012,309330,662516,55.84729599999999,-3.4496800000000003,NT0933062516,28.1,1809,East Cairn Hill,,0,0,0,0,1,0,0,0,0,0,0,0,0,0,0,0,0,0,0,0,0,1,0,0,0,0,0,0,0,0,0,0,0,0,0,0,0,0,0,0,0,0,0,0,0,0,0,0,0,0,1,0,0,0,0,0,0,0,0,0,0,0,0,0,0,0,0,POINT (309329.7471891645 662515.9027655139)
14020,14021,Corston Hill,,,28A,28A: Firth of Forth to the River Tweed,,,P03:Glasgow to Galashiels and North Berwick,West Lothian,3,65,344,348.0,1142,NT094634,NT 09463 63409,46.0,NT097629,302.0,trig point,flat summit area,,,S,,20-Jan-12,,"http://www.streetmap.co.uk/newmap.srf?x=309461&y=663414&z=3&sv=309461,663414&st=4&tl=~&bi=~&lu=N&ar=y",http://www.geograph.org.uk/mapper/coverage.php?zoom=10&layers=FTTB00000000000FT&lat=55.855387&lon=-3.447873,http://www.hill-bagging.co.uk/mountaindetails.php?qu=S&rf=14021,309461,663414,55.855387,-3.4478730000000004,NT0946163414,28.1,1809,East Cairn Hill,,0,0,0,0,1,0,0,0,0,0,0,0,0,0,0,0,0,0,0,0,0,1,0,0,0,0,0,0,0,0,0,0,0,0,0,0,0,0,0,0,0,0,0,0,0,0,0,0,0,0,0,0,0,0,0,0,0,0,0,0,0,0,0,0,0,0,0,POINT (309461.7175265242 663413.939605392)
14077,14078,Highside Hill,,,28A,28A: Firth of Forth to the River Tweed,,,P04:Lammermuir - Dunbar to River Tweed,East Lothian,3,66,345E,314.0,1030,NT518637,NT 51826 63713,32.0,NT516635,282.0,no feature,flat summit area,,,S,,20-Jan-12,,"http://www.streetmap.co.uk/newmap.srf?x=351826&y=663718&z=3&sv=351826,663718&st=4&tl=~&bi=~&lu=N&ar=y",http://www.geograph.org.uk/mapper/coverage.php?zoom=10&layers=FTTB00000000000FT&lat=55.864218&lon=-2.771286,http://www.hill-bagging.co.uk/mountaindetails.php?qu=S&rf=14078,351826,663718,55.86421800000001,-2.771286,NT5182663718,28.1,1813,Meikle Says Law,,0,0,0,0,1,0,0,0,0,0,0,0,0,0,0,0,0,0,0,0,0,1,0,0,0,0,0,0,0,0,0,0,0,0,0,0,0,0,0,0,0,0,0,0,0,0,0,0,0,0,0,0,0,0,0,0,0,0,0,0,0,0,0,0,0,0,0,POINT (351825.5900361193 663717.714779645)
14106,14107,Toxsidehill,,,28A,28A: Firth of Forth to the River Tweed,Moorfoot Hills,,P03:Glasgow to Galashiels and North Berwick,Midlothian,3,66 73,344,300.0,984,NT284543,NT 28415 54302,30.0,NT291537,270.0,no feature: ground c 20m N of trig point,,,,S,,20-Jan-12,,"http://www.streetmap.co.uk/newmap.srf?x=328414&y=654307&z=3&sv=328414,654307&st=4&tl=~&bi=~&lu=N&ar=y",http://www.geograph.org.uk/mapper/coverage.php?zoom=10&layers=FTTB00000000000FT&lat=55.776764&lon=-3.142795,http://www.hill-bagging.co.uk/mountaindetails.php?qu=S&rf=14107,328414,654307,55.776764,-3.142795,NT2841454307,28.1,1802,Blackhope Scar,,0,0,0,0,1,0,0,0,0,0,0,0,0,0,0,0,0,0,0,0,0,1,0,0,0,0,0,0,0,0,0,0,0,0,0,0,0,0,0,0,0,0,0,0,0,0,0,0,0,0,0,0,0,0,0,0,0,0,0,0,0,0,0,0,0,0,0,POINT (328414.086132746 654306.6070689654)
14111,14112,Witch Craig,,,28A,28A: Firth of Forth to the River Tweed,,,P03:Glasgow to Galashiels and North Berwick,West Lothian,2,65,349E,287.0,942,NS990726,,43.0,NS991722,244.0,,,,,S,,24-Jul-13,,"http://www.streetmap.co.uk/newmap.srf?x=299000&y=672600&z=3&sv=299000,672600&st=4&tl=~&bi=~&lu=N&ar=y",http://www.geograph.org.uk/mapper/coverage.php?zoom=10&layers=FTTB00000000000FT&lat=55.935805&lon=-3.618348,http://www.hill-bagging.co.uk/mountaindetails.php?qu=S&rf=14112,299000,672600,55.935805,-3.618348,NS9900072600,28.1,1827,Cairnpapple Hill,,0,0,0,0,1,0,0,0,0,0,0,0,0,0,0,0,0,0,0,0,0,0,1,0,0,0,0,0,0,0,0,0,0,0,0,0,0,0,0,0,0,0,0,0,0,0,0,0,0,0,0,0,0,0,0,0,0,0,0,0,0,0,0,0,0,0,0,POINT (299000.3820657065 672599.4390167836)
14116,14117,King's Seat,,,28A,28A: Firth of Forth to the River Tweed,Moorfoot Hills,,P03:Glasgow to Galashiels and North Berwick,Midlothian,2,66 73,344,295.0,968,NT267585,NT 26742 58569,39.0,NT265579,256.0,trig point,ground a few metres S may be as high,,,S,,15-Mar-15,,"http://www.streetmap.co.uk/newmap.srf?x=326741&y=658574&z=3&sv=326741,658574&st=4&tl=~&bi=~&lu=N&ar=y",http://www.geograph.org.uk/mapper/coverage.php?zoom=10&layers=FTTB00000000000FT&lat=55.814845&lon=-3.17061,http://www.hill-bagging.co.uk/mountaindetails.php?qu=S&rf=14117,326741,658574,55.814845,-3.17061,NT2674158574,28.1,1802,Blackhope Scar,,0,0,0,0,1,0,0,0,0,0,0,0,0,0,0,0,0,0,0,0,0,0,1,0,0,0,0,0,0,0,0,0,0,0,0,0,0,0,0,0,0,0,0,0,0,0,0,0,0,0,0,0,0,0,0,0,0,0,0,0,0,0,0,0,0,0,0,POINT (326741.0537139572 658573.7124872148)
14121,14122,Tippet Knowe,,,28A,28A: Firth of Forth to the River Tweed,,,P03:Glasgow to Galashiels and North Berwick,West Lothian,2,65,343,290.0,951,NS921611,NS 92120 61170,49.0,NS890580,241.0,grassy hillock,,obvious summit,,S,,15-Mar-15,,"http://www.streetmap.co.uk/newmap.srf?x=292118&y=661175&z=3&sv=292118,661175&st=4&tl=~&bi=~&lu=N&ar=y",http://www.geograph.org.uk/mapper/coverage.php?zoom=10&layers=FTTB00000000000FT&lat=55.831708&lon=-3.723904,http://www.hill-bagging.co.uk/mountaindetails.php?qu=S&rf=14122,292118,661175,55.831708,-3.723904,NS9211861175,28.1,1809,East Cairn Hill,,0,0,0,0,1,0,0,0,0,0,0,0,0,0,0,0,0,0,0,0,0,0,1,0,0,0,0,0,0,0,0,0,0,0,0,0,0,0,0,0,0,0,0,0,0,0,0,0,0,0,1,0,0,0,0,0,0,0,0,0,0,0,0,0,0,0,0,POINT (292118.3424902559 661174.9216159433)
14122,14123,Raven Craig,,,28A,28A: Firth of Forth to the River Tweed,,,P03:Glasgow to Galashiels and North Berwick,West Lothian,2,65,349E,290.0,951,NS990705,NS 99100 70498,36.0,NS989706,254.0,no feature: ground near path,,,,S,,20-Jan-12,,"http://www.streetmap.co.uk/newmap.srf?x=299098&y=670504&z=3&sv=299098,670504&st=4&tl=~&bi=~&lu=N&ar=y",http://www.geograph.org.uk/mapper/coverage.php?zoom=10&layers=FTTB00000000000FT&lat=55.916998&lon=-3.615993,http://www.hill-bagging.co.uk/mountaindetails.php?qu=S&rf=14123,299098,670504,55.916998,-3.615993,NS9909870504,28.1,1827,Cairnpapple Hill,,0,0,0,0,1,0,0,0,0,0,0,0,0,0,0,0,0,0,0,0,0,0,1,0,0,0,0,0,0,0,0,0,0,0,0,0,0,0,0,0,0,0,0,0,0,0,0,0,0,0,0,0,0,0,0,0,0,0,0,0,0,0,0,0,0,0,0,POINT (299098.5686308778 670503.1023356986)
14146,14147,Cockleroy,,,28A,28A: Firth of Forth to the River Tweed,,,P03:Glasgow to Galashiels and North Berwick,West Lothian,2,65,349E,278.0,912,NS989743,NS 98945 74368,59.0,NS994737,219.0,ground by trig point,,,,S,,20-Jan-12,,"http://www.streetmap.co.uk/newmap.srf?x=298943&y=674374&z=3&sv=298943,674374&st=4&tl=~&bi=~&lu=N&ar=y",http://www.geograph.org.uk/mapper/coverage.php?zoom=10&layers=FTTB00000000000FT&lat=55.951723&lon=-3.619922,http://www.hill-bagging.co.uk/mountaindetails.php?qu=S&rf=14147,298943,674374,55.951723,-3.6199220000000003,NS9894374374,28.1,1827,Cairnpapple Hill,,0,0,0,0,1,0,0,0,0,0,0,0,0,0,0,0,0,0,0,0,0,0,1,0,0,0,0,0,0,0,0,0,0,0,0,0,0,0,0,0,0,0,0,0,0,0,0,0,0,0,0,0,0,0,0,0,0,0,0,0,0,0,0,0,0,0,0,POINT (298943.574939356 674373.1446701898)
14148,14149,Warklaw Hill,,,28A,28A: Firth of Forth to the River Tweed,,,P03:Glasgow to Galashiels and North Berwick,Edinburgh,2,65 66,344 350,278.0,912,NT198673,NT 19856 67356,44.0,NT197667,234.0,no feature: ground SW of mast,,,,S,,20-Jan-12,,"http://www.streetmap.co.uk/newmap.srf?x=319855&y=667361&z=3&sv=319855,667361&st=4&tl=~&bi=~&lu=N&ar=y",http://www.geograph.org.uk/mapper/coverage.php?zoom=10&layers=FTTB00000000000FT&lat=55.892683&lon=-3.283065,http://www.hill-bagging.co.uk/mountaindetails.php?qu=S&rf=14149,319855,667361,55.892683,-3.283065,NT1985567361,28.1,1816,Allermuir Hill,,0,0,0,0,1,0,0,0,0,0,0,0,0,0,0,0,0,0,0,0,0,0,1,0,0,0,0,0,0,0,0,0,0,0,0,0,0,0,0,0,0,0,0,0,0,0,0,0,0,0,0,0,0,0,0,0,0,0,0,0,0,0,0,0,0,0,0,POINT (319854.9742252909 667360.9817565343)
14160,14161,Halk Law,,,28A,28A: Firth of Forth to the River Tweed,Moorfoot Hills,,P03:Glasgow to Galashiels and North Berwick,Midlothian,2,66 73,345W,270.0,886,NT344581,NT 34488 58175,44.0,NT338575,226.0,no feature,Top 350m SW at NT 34173 58044(no feature)not separable with Abney level,Abney level,,S,,15-Mar-15,alternative summit at NT342580,"http://www.streetmap.co.uk/newmap.srf?x=334487&y=658180&z=3&sv=334487,658180&st=4&tl=~&bi=~&lu=N&ar=y",http://www.geograph.org.uk/mapper/coverage.php?zoom=10&layers=FTTB00000000000FT&lat=55.81242&lon=-3.046929,http://www.hill-bagging.co.uk/mountaindetails.php?qu=S&rf=14161,334487,658180,55.812419999999996,-3.046929,NT3448758180,28.1,1802,Blackhope Scar,,0,0,0,0,1,0,0,0,0,0,0,0,0,0,0,0,0,0,0,0,0,0,1,0,0,0,0,0,0,0,0,0,0,0,0,0,0,0,0,0,0,0,0,0,0,0,0,0,0,0,0,0,0,0,0,0,0,0,0,0,0,0,0,0,0,0,0,POINT (334487.2200153965 658179.7210556519)
14162,14163,Camp Wood Hill,,,28A,28A: Firth of Forth to the River Tweed,Moorfoot Hills,,P03:Glasgow to Galashiels and North Berwick,Midlothian,2,66,345W,269.0,883,NT359638,NT 35982 63846,81.0,NT373602,188.0,mound,,,,S,,20-Jan-12,,"http://www.streetmap.co.uk/newmap.srf?x=335982&y=663851&z=3&sv=335982,663851&st=4&tl=~&bi=~&lu=N&ar=y",http://www.geograph.org.uk/mapper/coverage.php?zoom=10&layers=FTTB00000000000FT&lat=55.863567&lon=-3.024432,http://www.hill-bagging.co.uk/mountaindetails.php?qu=S&rf=14163,335982,663851,55.863567,-3.024432,NT3598263851,28.1,1802,Blackhope Scar,,0,0,0,0,1,0,0,0,0,0,0,0,0,0,0,0,0,0,0,0,0,0,1,0,0,0,0,0,0,0,0,0,0,0,0,0,0,0,0,0,0,0,0,0,0,0,0,0,0,0,1,0,0,0,0,0,0,0,0,0,0,0,0,0,0,0,0,POINT (335981.298564335 663850.8383938518)
14163,14164,Harle Rigging,,,28A,28A: Firth of Forth to the River Tweed,Moorfoot Hills,,P03:Glasgow to Galashiels and North Berwick,Midlothian,2,66,345W,269.0,883,NT400613,NT 40062 61376,46.0,NT393602,223.0,no feature,,,,S,,20-Jan-12,,"http://www.streetmap.co.uk/newmap.srf?x=340062&y=661381&z=3&sv=340062,661381&st=4&tl=~&bi=~&lu=N&ar=y",http://www.geograph.org.uk/mapper/coverage.php?zoom=10&layers=FTTB00000000000FT&lat=55.841902&lon=-2.958707,http://www.hill-bagging.co.uk/mountaindetails.php?qu=S&rf=14164,340062,661381,55.841902000000005,-2.958707,NT4006261381,28.1,1802,Blackhope Scar,,0,0,0,0,1,0,0,0,0,0,0,0,0,0,0,0,0,0,0,0,0,0,1,0,0,0,0,0,0,0,0,0,0,0,0,0,0,0,0,0,0,0,0,0,0,0,0,0,0,0,0,0,0,0,0,0,0,0,0,0,0,0,0,0,0,0,0,POINT (340061.3451147898 661380.7496571077)
14171,14172,Blaik Law,,,28A,28A: Firth of Forth to the River Tweed,,,P04:Lammermuir - Dunbar to River Tweed,East Lothian,Un,67,351E,263.0,863,NT665717,,26.0,NT665716,237.0,,,,,S,,02-Apr-14,Deleted April 2014,"http://www.streetmap.co.uk/newmap.srf?x=366500&y=671700&z=3&sv=366500,671700&st=4&tl=~&bi=~&lu=N&ar=y",http://www.geograph.org.uk/mapper/coverage.php?zoom=10&layers=FTTB00000000000FT&lat=55.937176&lon=-2.537834,http://www.hill-bagging.co.uk/mountaindetails.php?qu=S&rf=14172,366500,671700,55.937176,-2.537834,NT6650071700,28.1,1819,Spartleton,,0,0,0,0,0,0,0,0,0,0,0,0,0,0,0,0,0,0,0,0,0,0,0,0,0,0,0,0,0,0,0,0,0,0,0,0,0,0,0,0,0,0,0,0,0,0,0,0,0,0,0,0,0,0,0,0,0,0,0,0,0,0,0,0,0,0,1,POINT (366499.7149937345 671699.4980212678)
14176,14177,Kaimes Hill,,,28A,28A: Firth of Forth to the River Tweed,,,P03:Glasgow to Galashiels and North Berwick,Edinburgh,2,65,344 350,259.0,850,NT129665,NT 12956 66513,71.0,NT129662,188.0,outcrop,,,,S,,23-Dec-16,,"http://www.streetmap.co.uk/newmap.srf?x=312955&y=666518&z=3&sv=312955,666518&st=4&tl=~&bi=~&lu=N&ar=y",http://www.geograph.org.uk/mapper/coverage.php?zoom=10&layers=FTTB00000000000FT&lat=55.883912&lon=-3.393089,http://www.hill-bagging.co.uk/mountaindetails.php?qu=S&rf=14177,312955,666518,55.883912,-3.393089,NT1295566518,28.1,1809,East Cairn Hill,,0,0,0,0,1,0,0,0,0,0,0,0,0,0,0,0,0,0,0,0,0,0,1,0,0,0,0,0,0,0,0,0,0,0,0,0,0,0,0,0,0,0,0,0,0,0,0,0,0,0,0,0,0,0,0,0,0,0,0,0,0,0,0,0,0,0,0,POINT (312954.8496773603 666517.9847461333)
14184,14185,Riccarton Hills,,,28A,28A: Firth of Forth to the River Tweed,,,P03:Glasgow to Galashiels and North Berwick,West Lothian,2,65,349E,254.0,833,NT018737,NT 01824 73717,47.0,NT009734,207.0,cairn,,,,S,,24-Jul-13,,"http://www.streetmap.co.uk/newmap.srf?x=301822&y=673723&z=3&sv=301822,673723&st=4&tl=~&bi=~&lu=N&ar=y",http://www.geograph.org.uk/mapper/coverage.php?zoom=10&layers=FTTB00000000000FT&lat=55.946473&lon=-3.573599,http://www.hill-bagging.co.uk/mountaindetails.php?qu=S&rf=14185,301822,673723,55.946473,-3.5735989999999997,NT0182273723,28.1,1827,Cairnpapple Hill,,0,0,0,0,1,0,0,0,0,0,0,0,0,0,0,0,0,0,0,0,0,0,1,0,0,0,0,0,0,0,0,0,0,0,0,0,0,0,0,0,0,0,0,0,0,0,0,0,0,0,0,0,0,0,0,0,0,0,0,0,0,0,0,0,0,0,0,POINT (301822.6067179545 673722.0881762952)
14186,14187,Eastcraigs Hill,,,28A,28A: Firth of Forth to the River Tweed,,,P03:Glasgow to Galashiels and North Berwick,West Lothian,2,65,349E,250.0,820,NS903680,NS 90351 68007,34.0,NS868681,216.0,large boulder near trig point,,,,S,,24-Aug-15,,"http://www.streetmap.co.uk/newmap.srf?x=290349&y=668013&z=3&sv=290349,668013&st=4&tl=~&bi=~&lu=N&ar=y",http://www.geograph.org.uk/mapper/coverage.php?zoom=10&layers=FTTB00000000000FT&lat=55.892711&lon=-3.754898,http://www.hill-bagging.co.uk/mountaindetails.php?qu=S&rf=14187,290349,668013,55.892711,-3.7548980000000003,NS9034968013,28.1,1809,East Cairn Hill,,0,0,0,0,1,0,0,0,0,0,0,0,0,0,0,0,0,0,0,0,0,0,1,0,0,0,0,0,0,0,0,0,0,0,0,0,0,0,0,0,0,0,0,0,0,0,0,0,0,0,1,0,0,0,0,0,0,0,0,0,0,0,0,0,0,0,0,POINT (290349.3666226118 668012.0421494995)
14192,14193,Dalmahoy Hill,,,28A,28A: Firth of Forth to the River Tweed,,,P03:Glasgow to Galashiels and North Berwick,Edinburgh,2,65,344 350,246.0,807,NT135669,NT 13540 66931,38.0,NT133667,208.0,trig point,ground 200m NE may be as high,,,S,,20-Jan-12,Another 246m spot height at NT136669,"http://www.streetmap.co.uk/newmap.srf?x=313539&y=666936&z=3&sv=313539,666936&st=4&tl=~&bi=~&lu=N&ar=y",http://www.geograph.org.uk/mapper/coverage.php?zoom=10&layers=FTTB00000000000FT&lat=55.887772&lon=-3.38389,http://www.hill-bagging.co.uk/mountaindetails.php?qu=S&rf=14193,313539,666936,55.887772,-3.38389,NT1353966936,28.1,1809,East Cairn Hill,,0,0,0,0,1,0,0,0,0,0,0,0,0,0,0,0,0,0,0,0,0,0,1,0,0,0,0,0,0,0,0,0,0,0,0,0,0,0,0,0,0,0,0,0,0,0,0,0,0,0,0,0,0,0,0,0,0,0,0,0,0,0,0,0,0,0,0,POINT (313538.8376551292 666936.0019702113)
14195,14196,Gallow Hill,,,28A,28A: Firth of Forth to the River Tweed,Moorfoot Hills,,P03:Glasgow to Galashiels and North Berwick,Midlothian,2,66,345W,242.0,794,NT360613,NT 36087 61348,32.0,NT353616,210.0,no feature: grass,,Abney level,,S,,09-Nov-16,,"http://www.streetmap.co.uk/newmap.srf?x=336086&y=661353&z=3&sv=336086,661353&st=4&tl=~&bi=~&lu=N&ar=y",http://www.geograph.org.uk/mapper/coverage.php?zoom=10&layers=FTTB00000000000FT&lat=55.84114&lon=-3.022166,http://www.hill-bagging.co.uk/mountaindetails.php?qu=S&rf=14196,336086,661353,55.84114,-3.022166,NT3608661353,28.1,1802,Blackhope Scar,,0,0,0,0,1,0,0,0,0,0,0,0,0,0,0,0,0,0,0,0,0,0,1,0,0,0,0,0,0,0,0,0,0,0,0,0,0,0,0,0,0,0,0,0,0,0,0,0,0,0,0,0,0,0,0,0,0,0,0,0,0,0,0,0,0,0,0,POINT (336086.2530979324 661352.809495341)
14207,14208,Gormyre Hill,,,28A,28A: Firth of Forth to the River Tweed,,,P03:Glasgow to Galashiels and North Berwick,West Lothian,2,65,349E,236.0,774,NS976726,NS 97645 72661,37.0,NS982727,199.0,no feature,,,,S,,15-Mar-15,,"http://www.streetmap.co.uk/newmap.srf?x=297643&y=672667&z=3&sv=297643,672667&st=4&tl=~&bi=~&lu=N&ar=y",http://www.geograph.org.uk/mapper/coverage.php?zoom=10&layers=FTTB00000000000FT&lat=55.936117&lon=-3.640084,http://www.hill-bagging.co.uk/mountaindetails.php?qu=S&rf=14208,297643,672667,55.936117,-3.6400839999999994,NS9764372667,28.1,1827,Cairnpapple Hill,,0,0,0,0,1,0,0,0,0,0,0,0,0,0,0,0,0,0,0,0,0,0,1,0,0,0,0,0,0,0,0,0,0,0,0,0,0,0,0,0,0,0,0,0,0,0,0,0,0,0,0,0,0,0,0,0,0,0,0,0,0,0,0,0,0,0,0,POINT (297643.4966544927 672666.1550957365)
14218,14219,Bowden Hill,,,28A,28A: Firth of Forth to the River Tweed,,,P03:Glasgow to Galashiels and North Berwick,West Lothian,2,65,349E,229.0,751,NS977744,NS 97784 74416,42.0,NS980744,187.0,no feature,,,,S,,20-Jan-12,,"http://www.streetmap.co.uk/newmap.srf?x=297782&y=674422&z=3&sv=297782,674422&st=4&tl=~&bi=~&lu=N&ar=y",http://www.geograph.org.uk/mapper/coverage.php?zoom=10&layers=FTTB00000000000FT&lat=55.951909&lon=-3.638525,http://www.hill-bagging.co.uk/mountaindetails.php?qu=S&rf=14219,297782,674422,55.95190899999999,-3.638525,NS9778274422,28.1,1827,Cairnpapple Hill,,0,0,0,0,1,0,0,0,0,0,0,0,0,0,0,0,0,0,0,0,0,0,1,0,0,0,0,0,0,0,0,0,0,0,0,0,0,0,0,0,0,0,0,0,0,0,0,0,0,0,0,0,0,0,0,0,0,0,0,0,0,0,0,0,0,0,0,POINT (297782.5317575051 674421.2213892565)
14219,14220,Dodridge Law,,,28A,28A: Firth of Forth to the River Tweed,Moorfoot Hills,,P03:Glasgow to Galashiels and North Berwick,Midlothian,2,66,345W,228.0,748,NT417630,,30.0,NT413622,198.0,,,,,S,,20-Jan-12,potential alternative summit candidate 600m S in Marl Law Wood NT416623,"http://www.streetmap.co.uk/newmap.srf?x=341700&y=663000&z=3&sv=341700,663000&st=4&tl=~&bi=~&lu=N&ar=y",http://www.geograph.org.uk/mapper/coverage.php?zoom=10&layers=FTTB00000000000FT&lat=55.856646&lon=-2.932896,http://www.hill-bagging.co.uk/mountaindetails.php?qu=S&rf=14220,341700,663000,55.856646,-2.932896,NT4170063000,28.1,1802,Blackhope Scar,,0,0,0,0,1,0,0,0,0,0,0,0,0,0,0,0,0,0,0,0,0,0,1,0,0,0,0,0,0,0,0,0,0,0,0,0,0,0,0,0,0,0,0,0,0,0,0,0,0,0,0,0,0,0,0,0,0,0,0,0,0,0,0,0,0,0,0,POINT (341699.7712243525 662999.5586539711)
14221,14222,Brunt Hill,,,28A,28A: Firth of Forth to the River Tweed,,,P04:Lammermuir - Dunbar to River Tweed,East Lothian,2,67,351E,225.0,738,NT685744,NT 68591 74476,89.0,NT661730,136.0,no feature: ground on track,,,,S,,29-Mar-14,,"http://www.streetmap.co.uk/newmap.srf?x=368591&y=674481&z=3&sv=368591,674481&st=4&tl=~&bi=~&lu=N&ar=y",http://www.geograph.org.uk/mapper/coverage.php?zoom=10&layers=FTTB00000000000FT&lat=55.962307&lon=-2.504684,http://www.hill-bagging.co.uk/mountaindetails.php?qu=S&rf=14222,368591,674481,55.962306999999996,-2.504684,NT6859174481,28.1,1819,Spartleton,,0,0,0,0,1,0,0,0,0,0,0,0,0,0,0,0,0,0,0,0,0,0,1,0,0,0,0,0,0,0,0,0,0,0,0,0,0,0,0,0,0,0,0,0,0,0,0,0,0,0,1,0,0,0,0,0,0,0,0,0,0,0,0,0,0,0,0,POINT (368591.0145864493 674480.9142151726)
14227,14228,Selms Tops,,,28A,28A: Firth of Forth to the River Tweed,,,P03:Glasgow to Galashiels and North Berwick,West Lothian,2,65,344,222.0,728,NT089658,NT 08935 65842,30.0,NT086653,192.0,outcrop,,,,S,,20-Jan-12,,"http://www.streetmap.co.uk/newmap.srf?x=308934&y=665847&z=3&sv=308934,665847&st=4&tl=~&bi=~&lu=N&ar=y",http://www.geograph.org.uk/mapper/coverage.php?zoom=10&layers=FTTB00000000000FT&lat=55.877141&lon=-3.457122,http://www.hill-bagging.co.uk/mountaindetails.php?qu=S&rf=14228,308934,665847,55.877141,-3.457122,NT0893465847,28.1,1809,East Cairn Hill,,0,0,0,0,1,0,0,0,0,0,0,0,0,0,0,0,0,0,0,0,0,0,1,0,0,0,0,0,0,0,0,0,0,0,0,0,0,0,0,0,0,0,0,0,0,0,0,0,0,0,0,0,0,0,0,0,0,0,0,0,0,0,0,0,0,0,0,POINT (308933.758066216 665846.9819337381)
14228,14229,Binny Craig,,,28A,28A: Firth of Forth to the River Tweed,,,P03:Glasgow to Galashiels and North Berwick,West Lothian,2,65,349E,221.0,725,NT043734,NT 04303 73458,43.0,NT042732,178.0,rock outcrop,,,,S,,15-Mar-15,,"http://www.streetmap.co.uk/newmap.srf?x=304301&y=673464&z=3&sv=304301,673464&st=4&tl=~&bi=~&lu=N&ar=y",http://www.geograph.org.uk/mapper/coverage.php?zoom=10&layers=FTTB00000000000FT&lat=55.944648&lon=-3.533828,http://www.hill-bagging.co.uk/mountaindetails.php?qu=S&rf=14229,304301,673464,55.944648,-3.5338279999999997,NT0430173464,28.1,1827,Cairnpapple Hill,,0,0,0,0,1,0,0,0,0,0,0,0,0,0,0,0,0,0,0,0,0,0,1,0,0,0,0,0,0,0,0,0,0,0,0,0,0,0,0,0,0,0,0,0,0,0,0,0,0,0,0,0,0,0,0,0,0,0,0,0,0,0,0,0,0,0,0,POINT (304301.6915328337 673463.1711464066)
14232,14233,Dechmont Law,,,28A,28A: Firth of Forth to the River Tweed,,,P03:Glasgow to Galashiels and North Berwick,West Lothian,2,65,349E,217.0,712,NT033697,NT 03391 69763,50.0,NT010694,167.0,ground 17m north of trig point,,,,S,,20-Jan-12,,"http://www.streetmap.co.uk/newmap.srf?x=303389&y=669769&z=3&sv=303389,669769&st=4&tl=~&bi=~&lu=N&ar=y",http://www.geograph.org.uk/mapper/coverage.php?zoom=10&layers=FTTB00000000000FT&lat=55.911278&lon=-3.547102,http://www.hill-bagging.co.uk/mountaindetails.php?qu=S&rf=14233,303389,669769,55.911278,-3.5471019999999998,NT0338969769,28.1,1827,Cairnpapple Hill,,0,0,0,0,1,0,0,0,0,0,0,0,0,0,0,0,0,0,0,0,0,0,1,0,0,0,0,0,0,0,0,0,0,0,0,0,0,0,0,0,0,0,0,0,0,0,0,0,0,0,0,0,0,0,0,0,0,0,0,0,0,0,0,0,0,0,0,POINT (303389.631162929 669768.0901531372)
14234,14235,Carfrae Hill,,,28A,28A: Firth of Forth to the River Tweed,,,P04:Lammermuir - Dunbar to River Tweed,East Lothian,2,67,345E 351E,226.0,741,NT571684,NT 57195 68405,47.0,NT566673,179.0,no feature,flat summit area,,,S,,07-Mar-17,Relocated from 217m at NT560682 (Townhead Hill) July 2014,"http://www.streetmap.co.uk/newmap.srf?x=357195&y=668410&z=3&sv=357195,668410&st=4&tl=~&bi=~&lu=N&ar=y",http://www.geograph.org.uk/mapper/coverage.php?zoom=10&layers=FTTB00000000000FT&lat=55.906881&lon=-2.686251,http://www.hill-bagging.co.uk/mountaindetails.php?qu=S&rf=14235,357195,668410,55.906881000000006,-2.686251,NT5719568410,28.1,1813,Meikle Says Law,,0,0,0,0,1,0,0,0,0,0,0,0,0,0,0,0,0,0,0,0,0,0,1,0,0,0,0,0,0,0,0,0,0,0,0,0,0,0,0,0,0,0,0,0,0,0,0,0,0,0,0,0,0,0,0,0,0,0,0,0,0,0,0,0,0,0,0,POINT (357194.71960884 668409.8642018363)
14235,14236,Black Loch Hill,,,28A,28A: Firth of Forth to the River Tweed,,,P04:Lammermuir - Dunbar to River Tweed,East Lothian,2,67,351E,215.0,705,NT668731,NT 66824 73162,37.0,NT667725,178.0,no feature,flat summit area in field,,,S,,15-Mar-15,,"http://www.streetmap.co.uk/newmap.srf?x=366824&y=673167&z=3&sv=366824,673167&st=4&tl=~&bi=~&lu=N&ar=y",http://www.geograph.org.uk/mapper/coverage.php?zoom=10&layers=FTTB00000000000FT&lat=55.950382&lon=-2.532825,http://www.hill-bagging.co.uk/mountaindetails.php?qu=S&rf=14236,366824,673167,55.950382,-2.532825,NT6682473167,28.1,1819,Spartleton,,0,0,0,0,1,0,0,0,0,0,0,0,0,0,0,0,0,0,0,0,0,0,1,0,0,0,0,0,0,0,0,0,0,0,0,0,0,0,0,0,0,0,0,0,0,0,0,0,0,0,0,0,0,0,0,0,0,0,0,0,0,0,0,0,0,0,0,POINT (366823.9562056157 673166.8733848114)
14237,14238,Tripslaw Hill,,,28A,28A: Firth of Forth to the River Tweed,,,P04:Lammermuir - Dunbar to River Tweed,East Lothian,2,67,351E,214.0,702,NT695723,NT 69590 72335,36.0,NT694722,178.0,no feature,summit is in trees,,,S,,30-Oct-14,,"http://www.streetmap.co.uk/newmap.srf?x=369590&y=672340&z=3&sv=369590,672340&st=4&tl=~&bi=~&lu=N&ar=y",http://www.geograph.org.uk/mapper/coverage.php?zoom=10&layers=FTTB00000000000FT&lat=55.943135&lon=-2.48844,http://www.hill-bagging.co.uk/mountaindetails.php?qu=S&rf=14238,369590,672340,55.943135,-2.48844,NT6959072340,28.1,1819,Spartleton,,0,0,0,0,1,0,0,0,0,0,0,0,0,0,0,0,0,0,0,0,0,0,1,0,0,0,0,0,0,0,0,0,0,0,0,0,0,0,0,0,0,0,0,0,0,0,0,0,0,0,0,0,0,0,0,0,0,0,0,0,0,0,0,0,0,0,0,POINT (369590.0385221894 672339.8173457509)
14238,14239,Braid Hills,,,28A,28A: Firth of Forth to the River Tweed,,,P03:Glasgow to Galashiels and North Berwick,Edinburgh,2,66,350,213.0,699,NT250694,NT 25037 69397,51.0,NT229681,162.0,no feature: grass,,,,S,,20-Jan-12,,"http://www.streetmap.co.uk/newmap.srf?x=325036&y=669402&z=3&sv=325036,669402&st=4&tl=~&bi=~&lu=N&ar=y",http://www.geograph.org.uk/mapper/coverage.php?zoom=10&layers=FTTB00000000000FT&lat=55.911852&lon=-3.200809,http://www.hill-bagging.co.uk/mountaindetails.php?qu=S&rf=14239,325036,669402,55.911852,-3.200809,NT2503669402,28.1,1816,Allermuir Hill,,0,0,0,0,1,0,0,0,0,0,0,0,0,0,0,0,0,0,0,0,0,0,1,0,0,0,0,0,0,0,0,0,0,0,0,0,0,0,0,0,0,0,0,0,0,0,0,0,0,0,0,0,0,0,0,0,0,0,0,0,0,0,0,0,0,0,0,POINT (325036.0497994465 669401.939197969)
14243,14244,Cow Hill,,,28A,28A: Firth of Forth to the River Tweed,,,P03:Glasgow to Galashiels and North Berwick,West Lothian,2,65,349E,209.0,686,NS974740,NS 97442 74023,37.0,NS981740,172.0,no feature,ground 55m ESE at NS 97494 74000 may be as high,,,S,,11-Apr-15,,"http://www.streetmap.co.uk/newmap.srf?x=297440&y=674029&z=3&sv=297440,674029&st=4&tl=~&bi=~&lu=N&ar=y",http://www.geograph.org.uk/mapper/coverage.php?zoom=10&layers=FTTB00000000000FT&lat=55.948306&lon=-3.64385,http://www.hill-bagging.co.uk/mountaindetails.php?qu=S&rf=14244,297440,674029,55.948306,-3.64385,NS9744074029,28.1,1827,Cairnpapple Hill,,0,0,0,0,1,0,0,0,0,0,0,0,0,0,0,0,0,0,0,0,0,0,1,0,0,0,0,0,0,0,0,0,0,0,0,0,0,0,0,0,0,0,0,0,0,0,0,0,0,0,0,0,0,0,0,0,0,0,0,0,0,0,0,0,0,0,0,POINT (297440.5164323236 674028.1644449923)
14250,14251,Highside Hill,,,28A,28A: Firth of Forth to the River Tweed,,,P04:Lammermuir - Dunbar to River Tweed,East Lothian,1,67,351E,196.0,643,NT662735,NT 66246 73540,49.0,NT674743,147.0,no feature: field,NW summit at NT 66048 73927 is c.1m lower,Seco 2x Hand Level,,S,,20-Jan-12,possible alternative summit at NT660739,"http://www.streetmap.co.uk/newmap.srf?x=366246&y=673545&z=3&sv=366246,673545&st=4&tl=~&bi=~&lu=N&ar=y",http://www.geograph.org.uk/mapper/coverage.php?zoom=10&layers=FTTB00000000000FT&lat=55.953738&lon=-2.542128,http://www.hill-bagging.co.uk/mountaindetails.php?qu=S&rf=14251,366246,673545,55.953738,-2.542128,NT6624673545,28.1,1819,Spartleton,,0,0,0,0,1,0,0,0,0,0,0,0,0,0,0,0,0,0,0,0,0,0,0,1,0,0,0,0,0,0,0,0,0,0,0,0,0,0,0,0,0,0,0,0,0,0,0,0,0,0,0,0,0,0,0,0,0,0,0,0,0,0,0,0,0,0,0,POINT (366245.9273425699 673544.9068372709)
14252,14253,Newmains Hill,,,28A,28A: Firth of Forth to the River Tweed,,,P04:Lammermuir - Dunbar to River Tweed,East Lothian,1,67,351E,193.0,633,NT607716,NT 60748 71625,36.0,NT609714,157.0,no feature,flat summit area,,,S,,20-Jan-12,,"http://www.streetmap.co.uk/newmap.srf?x=360748&y=671630&z=3&sv=360748,671630&st=4&tl=~&bi=~&lu=N&ar=y",http://www.geograph.org.uk/mapper/coverage.php?zoom=10&layers=FTTB00000000000FT&lat=55.936114&lon=-2.629892,http://www.hill-bagging.co.uk/mountaindetails.php?qu=S&rf=14253,360748,671630,55.936114,-2.629892,NT6074871630,28.1,1819,Spartleton,,0,0,0,0,1,0,0,0,0,0,0,0,0,0,0,0,0,0,0,0,0,0,0,1,0,0,0,0,0,0,0,0,0,0,0,0,0,0,0,0,0,0,0,0,0,0,0,0,0,0,0,0,0,0,0,0,0,0,0,0,0,0,0,0,0,0,0,POINT (360747.8119099812 671629.8719797533)
14257,14258,Barney Hill,,,28A,28A: Firth of Forth to the River Tweed,Moorfoot Hills,,P03:Glasgow to Galashiels and North Berwick,East Lothian,1,66,351W,181.0,594,NT513759,NT 51366 75988,33.0,NT505760,148.0,embedded boulder in grass,flat summit area,Abney level,,S,,04-Feb-18,,"http://www.streetmap.co.uk/newmap.srf?x=351366&y=675993&z=3&sv=351366,675993&st=4&tl=~&bi=~&lu=N&ar=y",http://www.geograph.org.uk/mapper/coverage.php?zoom=10&layers=FTTB00000000000FT&lat=55.974452&lon=-2.780848,http://www.hill-bagging.co.uk/mountaindetails.php?qu=S&rf=14258,351366,675993,55.974452,-2.7808479999999998,NT5136675993,28.1,1802,Blackhope Scar,,0,0,0,0,1,0,0,0,0,0,0,0,0,0,0,0,0,0,0,0,0,0,0,1,0,0,0,0,0,0,0,0,0,0,0,0,0,0,0,0,0,0,0,0,0,0,0,0,0,0,0,0,0,0,0,0,0,0,0,0,0,0,0,0,0,0,0,POINT (351365.6803567068 675992.9524559253)
14258,14259,Byres Hill,,,28A,28A: Firth of Forth to the River Tweed,Moorfoot Hills,,P03:Glasgow to Galashiels and North Berwick,East Lothian,1,66,351W,181.0,594,NT500764,NT 50082 76424,43.0,NT504763,138.0,ground by monument,,,,S,,20-Sep-15,,"http://www.streetmap.co.uk/newmap.srf?x=350082&y=676429&z=3&sv=350082,676429&st=4&tl=~&bi=~&lu=N&ar=y",http://www.geograph.org.uk/mapper/coverage.php?zoom=10&layers=FTTB00000000000FT&lat=55.978237&lon=-2.801501,http://www.hill-bagging.co.uk/mountaindetails.php?qu=S&rf=14259,350082,676429,55.978237,-2.801501,NT5008276429,28.1,1802,Blackhope Scar,,0,0,0,0,1,0,0,0,0,0,0,0,0,0,0,0,0,0,0,0,0,0,0,1,0,0,0,0,0,0,0,0,0,0,0,0,0,0,0,0,0,0,0,0,0,0,0,0,0,0,0,0,0,0,0,0,0,0,0,0,0,0,0,0,0,0,0,POINT (350081.6418118454 676428.9649844237)
14259,14260,Whitelaw Hill,,,28A,28A: Firth of Forth to the River Tweed,,,P04:Lammermuir - Dunbar to River Tweed,East Lothian,1,67,351E,179.0,587,NT572715,NT 57284 71555,56.0,NT570712,123.0,no feature,flat summit area,,,S,,20-Jan-12,,"http://www.streetmap.co.uk/newmap.srf?x=357284&y=671560&z=3&sv=357284,671560&st=4&tl=~&bi=~&lu=N&ar=y",http://www.geograph.org.uk/mapper/coverage.php?zoom=10&layers=FTTB00000000000FT&lat=55.935189&lon=-2.685326,http://www.hill-bagging.co.uk/mountaindetails.php?qu=S&rf=14260,357284,671560,55.935189,-2.685326,NT5728471560,28.1,1813,Meikle Says Law,,0,0,0,0,1,0,0,0,0,0,0,0,0,0,0,0,0,0,0,0,0,0,0,1,0,0,0,0,0,0,0,0,0,0,0,0,0,0,0,0,0,0,0,0,0,0,0,0,0,0,0,0,0,0,0,0,0,0,0,0,0,0,0,0,0,0,0,POINT (357283.7748930674 671559.863825461)
14261,14262,Windford Dub Hill,,,28A,28A: Firth of Forth to the River Tweed,,,P04:Lammermuir - Dunbar to River Tweed,East Lothian,1,67,351E,178.0,584,NT703731,NT 70344 73116,30.0,NT700730,148.0,no feature: ground on track,,,,S,,20-Jan-12,,"http://www.streetmap.co.uk/newmap.srf?x=370344&y=673121&z=3&sv=370344,673121&st=4&tl=~&bi=~&lu=N&ar=y",http://www.geograph.org.uk/mapper/coverage.php?zoom=10&layers=FTTB00000000000FT&lat=55.9502&lon=-2.476455,http://www.hill-bagging.co.uk/mountaindetails.php?qu=S&rf=14262,370344,673121,55.9502,-2.476455,NT7034473121,28.1,1819,Spartleton,,0,0,0,0,1,0,0,0,0,0,0,0,0,0,0,0,0,0,0,0,0,0,0,1,0,0,0,0,0,0,0,0,0,0,0,0,0,0,0,0,0,0,0,0,0,0,0,0,0,0,0,0,0,0,0,0,0,0,0,0,0,0,0,0,0,0,0,POINT (370344.0469277098 673120.9139911343)
14262,14263,Wester Craiglockhart Hill,,,28A,28A: Firth of Forth to the River Tweed,,,P03:Glasgow to Galashiels and North Berwick,Edinburgh,1,66,350,176.0,577,NT228700,NT 22831 70066,62.0,NT222695,114.0,no feature: ground c 6m E of trig point,,,,S,,15-Mar-15,,"http://www.streetmap.co.uk/newmap.srf?x=322830&y=670072&z=3&sv=322830,670072&st=4&tl=~&bi=~&lu=N&ar=y",http://www.geograph.org.uk/mapper/coverage.php?zoom=10&layers=FTTB00000000000FT&lat=55.917513&lon=-3.236282,http://www.hill-bagging.co.uk/mountaindetails.php?qu=S&rf=14263,322830,670072,55.917513,-3.236282,NT2283070072,28.1,1816,Allermuir Hill,,0,0,0,0,1,0,0,0,0,0,0,0,0,0,0,0,0,0,0,0,0,0,0,1,0,0,0,0,0,0,0,0,0,0,0,0,0,0,0,0,0,0,0,0,0,0,0,0,0,0,0,0,0,0,0,0,0,0,0,0,0,0,0,0,0,0,0,POINT (322830.0263104409 670071.0167246492)
14263,14264,Salisbury Crags,,,28A,28A: Firth of Forth to the River Tweed,,,P03:Glasgow to Galashiels and North Berwick,Edinburgh,1,66,350,174.0,571,NT267731,,65.0,NT272728,109.0,,,,,S,,20-Jan-12,,"http://www.streetmap.co.uk/newmap.srf?x=326700&y=673100&z=3&sv=326700,673100&st=4&tl=~&bi=~&lu=N&ar=y",http://www.geograph.org.uk/mapper/coverage.php?zoom=10&layers=FTTB00000000000FT&lat=55.945323&lon=-3.175203,http://www.hill-bagging.co.uk/mountaindetails.php?qu=S&rf=14264,326700,673100,55.945322999999995,-3.1752029999999998,NT2670073100,28.1,1828,Arthur's Seat,,0,0,0,0,1,0,0,0,0,0,0,0,0,0,0,0,0,0,0,0,0,0,0,1,0,0,0,0,0,0,0,0,0,0,0,0,0,0,0,0,0,0,0,0,0,0,0,0,0,0,0,0,0,0,0,0,0,0,0,0,0,0,0,0,0,0,0,POINT (326699.9044304634 673099.4524655155)
14264,14265,Mountlehoy Hill,,,28A,28A: Firth of Forth to the River Tweed,,,P04:Lammermuir - Dunbar to River Tweed,East Lothian,1,67,351E,172.0,564,NT603722,NT 60391 72235,35.0,NT599717,137.0,no feature. Ground on E side of wall,,Seco 2x Hand Level,,S,,15-Mar-15,,"http://www.streetmap.co.uk/newmap.srf?x=360391&y=672240&z=3&sv=360391,672240&st=4&tl=~&bi=~&lu=N&ar=y",http://www.geograph.org.uk/mapper/coverage.php?zoom=10&layers=FTTB00000000000FT&lat=55.941565&lon=-2.635696,http://www.hill-bagging.co.uk/mountaindetails.php?qu=S&rf=14265,360391,672240,55.941565000000004,-2.635696,NT6039172240,28.1,1819,Spartleton,,0,0,0,0,1,0,0,0,0,0,0,0,0,0,0,0,0,0,0,0,0,0,0,1,0,0,0,0,0,0,0,0,0,0,0,0,0,0,0,0,0,0,0,0,0,0,0,0,0,0,0,0,0,0,0,0,0,0,0,0,0,0,0,0,0,0,0,POINT (360390.8084894746 672239.8704741782)
14266,14267,Pressmennan Hill,,,28A,28A: Firth of Forth to the River Tweed,,,P04:Lammermuir - Dunbar to River Tweed,East Lothian,1,67,351E,169.0,554,NT626734,NT 62620 73465,42.0,NT620726,127.0,no feature,,,,S,,20-Jan-12,,"http://www.streetmap.co.uk/newmap.srf?x=362620&y=673470&z=3&sv=362620,673470&st=4&tl=~&bi=~&lu=N&ar=y",http://www.geograph.org.uk/mapper/coverage.php?zoom=10&layers=FTTB00000000000FT&lat=55.952795&lon=-2.600183,http://www.hill-bagging.co.uk/mountaindetails.php?qu=S&rf=14267,362620,673470,55.952794999999995,-2.6001830000000004,NT6262073470,28.1,1819,Spartleton,,0,0,0,0,1,0,0,0,0,0,0,0,0,0,0,0,0,0,0,0,0,0,0,1,0,0,0,0,0,0,0,0,0,0,0,0,0,0,0,0,0,0,0,0,0,0,0,0,0,0,0,0,0,0,0,0,0,0,0,0,0,0,0,0,0,0,0,POINT (362619.8879540749 673469.9107679606)
14267,14268,Lawhead Hill,,,28A,28A: Firth of Forth to the River Tweed,,,P04:Lammermuir - Dunbar to River Tweed,East Lothian,1,67,351E,171.0,561,NT582726,NT 58293 72646,40.0,NT577720,131.0,no feature,summit in woodland,,,S,,15-Mar-15,,"http://www.streetmap.co.uk/newmap.srf?x=358293&y=672651&z=3&sv=358293,672651&st=4&tl=~&bi=~&lu=N&ar=y",http://www.geograph.org.uk/mapper/coverage.php?zoom=10&layers=FTTB00000000000FT&lat=55.94508&lon=-2.669345,http://www.hill-bagging.co.uk/mountaindetails.php?qu=S&rf=14268,358293,672651,55.945080000000004,-2.669345,NT5829372651,28.1,1813,Meikle Says Law,,0,0,0,0,1,0,0,0,0,0,0,0,0,0,0,0,0,0,0,0,0,0,0,1,0,0,0,0,0,0,0,0,0,0,0,0,0,0,0,0,0,0,0,0,0,0,0,0,0,0,0,0,0,0,0,0,0,0,0,0,0,0,0,0,0,0,0,POINT (358292.8047377624 672650.9179239739)
14269,14270,Blackford Hill,,,28A,28A: Firth of Forth to the River Tweed,,,P03:Glasgow to Galashiels and North Berwick,Edinburgh,1,66,350,164.0,538,NT254706,NT 25446 70634,63.0,NT252704,101.0,rock 6m SE of trig point,,Abney level,,S,,20-Jan-12,,"http://www.streetmap.co.uk/newmap.srf?x=325445&y=670640&z=3&sv=325445,670640&st=4&tl=~&bi=~&lu=N&ar=y",http://www.geograph.org.uk/mapper/coverage.php?zoom=10&layers=FTTB00000000000FT&lat=55.923028&lon=-3.194609,http://www.hill-bagging.co.uk/mountaindetails.php?qu=S&rf=14270,325445,670640,55.923028,-3.194609,NT2544570640,28.1,1816,Allermuir Hill,,0,0,0,0,1,0,0,0,0,0,0,0,0,0,0,0,0,0,0,0,0,0,0,1,0,0,0,0,0,0,0,0,0,0,0,0,0,0,0,0,0,0,0,0,0,0,0,0,0,0,0,0,0,0,0,0,0,0,0,0,0,0,0,0,0,0,0,POINT (325445.0759641562 670639.00592239)
14270,14271,Carberry Hill,,,28A,28A: Firth of Forth to the River Tweed,Moorfoot Hills,,P03:Glasgow to Galashiels and North Berwick,East Lothian,1,66,345W 351W,160.0,525,NT376697,,57.0,NT370689,103.0,,,,,S,,20-Jan-12,,"http://www.streetmap.co.uk/newmap.srf?x=337600&y=669700&z=3&sv=337600,669700&st=4&tl=~&bi=~&lu=N&ar=y",http://www.geograph.org.uk/mapper/coverage.php?zoom=10&layers=FTTB00000000000FT&lat=55.916321&lon=-2.999929,http://www.hill-bagging.co.uk/mountaindetails.php?qu=S&rf=14271,337600,669700,55.916320999999996,-2.9999290000000003,NT3760069700,28.1,1802,Blackhope Scar,,0,0,0,0,1,0,0,0,0,0,0,0,0,0,0,0,0,0,0,0,0,0,0,1,0,0,0,0,0,0,0,0,0,0,0,0,0,0,0,0,0,0,0,0,0,0,0,0,0,0,0,0,0,0,0,0,0,0,0,0,0,0,0,0,0,0,0,POINT (337599.6996450071 669699.5218320853)
14274,14275,Easter Craiglockhart Hill,,,28A,28A: Firth of Forth to the River Tweed,,,P03:Glasgow to Galashiels and North Berwick,Edinburgh,1,66,350,157.0,515,NT232704,NT 23214 70457,45.0,NT229702,112.0,no feature: ground near bench,,,,S,,20-Jan-12,,"http://www.streetmap.co.uk/newmap.srf?x=323213&y=670462&z=3&sv=323213,670462&st=4&tl=~&bi=~&lu=N&ar=y",http://www.geograph.org.uk/mapper/coverage.php?zoom=10&layers=FTTB00000000000FT&lat=55.921086&lon=-3.230267,http://www.hill-bagging.co.uk/mountaindetails.php?qu=S&rf=14275,323213,670462,55.921085999999995,-3.230267,NT2321370462,28.1,1816,Allermuir Hill,,0,0,0,0,1,0,0,0,0,0,0,0,0,0,0,0,0,0,0,0,0,0,0,1,0,0,0,0,0,0,0,0,0,0,0,0,0,0,0,0,0,0,0,0,0,0,0,0,0,0,0,0,0,0,0,0,0,0,0,0,0,0,0,0,0,0,0,POINT (323213.0204717634 670461.9503350023)
14279,14280,Tormain,,,28A,28A: Firth of Forth to the River Tweed,,,P03:Glasgow to Galashiels and North Berwick,Edinburgh,1,65,350,147.0,482,NT129696,NT 12905 69682,39.0,NT110686,108.0,mound in wood with cup and ring marked rock,ground by fence 35m N is lower,,,S,,15-Dec-14,,"http://www.streetmap.co.uk/newmap.srf?x=312904&y=669688&z=3&sv=312904,669688&st=4&tl=~&bi=~&lu=N&ar=y",http://www.geograph.org.uk/mapper/coverage.php?zoom=10&layers=FTTB00000000000FT&lat=55.912368&lon=-3.394926,http://www.hill-bagging.co.uk/mountaindetails.php?qu=S&rf=14280,312904,669688,55.91236800000001,-3.3949260000000003,NT1290469688,28.1,1809,East Cairn Hill,,0,0,0,0,1,0,0,0,0,0,0,0,0,0,0,0,0,0,0,0,0,0,0,1,0,0,0,0,0,0,0,0,0,0,0,0,0,0,0,0,0,0,0,0,0,0,0,0,0,0,0,0,0,0,0,0,0,0,0,0,0,0,0,0,0,0,0,POINT (312903.8112032511 669687.069252387)
14280,14281,Dunsapie,,,28A,28A: Firth of Forth to the River Tweed,,,P03:Glasgow to Galashiels and North Berwick,Edinburgh,1,66,350,145.0,476,NT281731,NT 28187 73148,34.0,NT280730,111.0,outcrop,,obvious summit,,S,,20-Jan-12,,"http://www.streetmap.co.uk/newmap.srf?x=328186&y=673154&z=3&sv=328186,673154&st=4&tl=~&bi=~&lu=N&ar=y",http://www.geograph.org.uk/mapper/coverage.php?zoom=10&layers=FTTB00000000000FT&lat=55.946029&lon=-3.151426,http://www.hill-bagging.co.uk/mountaindetails.php?qu=S&rf=14281,328186,673154,55.946029,-3.151426,NT2818673154,28.1,1828,Arthur's Seat,,0,0,0,0,1,0,0,0,0,0,0,0,0,0,0,0,0,0,0,0,0,0,0,1,0,0,0,0,0,0,0,0,0,0,0,0,0,0,0,0,0,0,0,0,0,0,0,0,0,0,0,0,0,0,0,0,0,0,0,0,0,0,0,0,0,0,0,POINT (328186.1557239235 673153.0358562091)
14282,14283,Parkley Hill,,,28A,28A: Firth of Forth to the River Tweed,,,P03:Glasgow to Galashiels and North Berwick,West Lothian,1,65,349E,144.0,472,NT012763,NT 01267 76384,31.0,NS999756,113.0,no feature: ground in field,flat summit area,,,S,,15-Apr-14,,"http://www.streetmap.co.uk/newmap.srf?x=301265&y=676390&z=3&sv=301265,676390&st=4&tl=~&bi=~&lu=N&ar=y",http://www.geograph.org.uk/mapper/coverage.php?zoom=10&layers=FTTB00000000000FT&lat=55.970313&lon=-3.583492,http://www.hill-bagging.co.uk/mountaindetails.php?qu=S&rf=14283,301265,676390,55.970313,-3.5834919999999997,NT0126576390,28.1,1827,Cairnpapple Hill,,0,0,0,0,1,0,0,0,0,0,0,0,0,0,0,0,0,0,0,0,0,0,0,1,0,0,0,0,0,0,0,0,0,0,0,0,0,0,0,0,0,0,0,0,0,0,0,0,0,0,0,0,0,0,0,0,0,0,0,0,0,0,0,0,0,0,0,POINT (301265.6004954161 676389.2063644215)
14284,14285,Kilduff Hill,,,28A,28A: Firth of Forth to the River Tweed,Moorfoot Hills,,P03:Glasgow to Galashiels and North Berwick,East Lothian,1,66,351W,138.0,453,NT513776,NT 51384 77599,47.0,NT508773,91.0,"no feature: grass, gorse and bracken",,,,S,,20-Jan-12,,"http://www.streetmap.co.uk/newmap.srf?x=351384&y=677605&z=3&sv=351384,677605&st=4&tl=~&bi=~&lu=N&ar=y",http://www.geograph.org.uk/mapper/coverage.php?zoom=10&layers=FTTB00000000000FT&lat=55.988928&lon=-2.780852,http://www.hill-bagging.co.uk/mountaindetails.php?qu=S&rf=14285,351384,677605,55.988928,-2.780852,NT5138477605,28.1,1802,Blackhope Scar,,0,0,0,0,1,0,0,0,0,0,0,0,0,0,0,0,0,0,0,0,0,0,0,1,0,0,0,0,0,0,0,0,0,0,0,0,0,0,0,0,0,0,0,0,0,0,0,0,0,0,0,0,0,0,0,0,0,0,0,0,0,0,0,0,0,0,0,POINT (351383.6372884031 677604.0820916075)
14285,14286,Winton Hill,,,28A,28A: Firth of Forth to the River Tweed,Moorfoot Hills,,P03:Glasgow to Galashiels and North Berwick,East Lothian,1,66,351W,132.0,433,NT438708,NT 43841 70892,36.0,NT481742,96.0,no feature,,,,S,,15-Mar-15,,"http://www.streetmap.co.uk/newmap.srf?x=343841&y=670897&z=3&sv=343841,670897&st=4&tl=~&bi=~&lu=N&ar=y",http://www.geograph.org.uk/mapper/coverage.php?zoom=10&layers=FTTB00000000000FT&lat=55.927848&lon=-2.900346,http://www.hill-bagging.co.uk/mountaindetails.php?qu=S&rf=14286,343841,670897,55.927848,-2.900346,NT4384170897,28.1,1802,Blackhope Scar,,0,0,0,0,1,0,0,0,0,0,0,0,0,0,0,0,0,0,0,0,0,0,0,1,0,0,0,0,0,0,0,0,0,0,0,0,0,0,0,0,0,0,0,0,0,0,0,0,0,0,0,0,0,0,0,0,0,0,0,0,0,0,0,0,0,0,0,POINT (343840.4570806102 670896.8937957474)
14288,14289,Edinburgh Castle,,,28A,28A: Firth of Forth to the River Tweed,,,P03:Glasgow to Galashiels and North Berwick,Edinburgh,1,66,350,131.0,430,NT251735,NT 25154 73507,63.0,NT256734,68.0,rock outcrop outside St Margaret's Chapel,rock in garden 45m S at NT 25152 73465 is probably lower,,,S,,03-Dec-13,,"http://www.streetmap.co.uk/newmap.srf?x=325153&y=673513&z=3&sv=325153,673513&st=4&tl=~&bi=~&lu=N&ar=y",http://www.geograph.org.uk/mapper/coverage.php?zoom=10&layers=FTTB00000000000FT&lat=55.948791&lon=-3.200078,http://www.hill-bagging.co.uk/mountaindetails.php?qu=S&rf=14289,325153,673513,55.948791,-3.200078,NT2515373513,28.1,1816,Allermuir Hill,,0,0,0,0,1,0,0,0,0,0,0,0,0,0,0,0,0,0,0,0,0,0,0,1,0,0,0,0,0,0,0,0,0,0,0,0,0,0,0,0,0,0,0,0,0,0,0,0,0,0,0,0,0,0,0,0,0,0,0,0,0,0,0,0,0,0,0,POINT (325153.0937294242 673512.0968495514)
14291,14292,Mons Hill,,,28A,28A: Firth of Forth to the River Tweed,,,P03:Glasgow to Galashiels and North Berwick,Edinburgh,1,65,350,119.0,390,NT154784,NT 15448 78473,64.0,NT133773,55.0,rocks in light rhododendron scrub,,,,S,,24-Jul-13,,"http://www.streetmap.co.uk/newmap.srf?x=315447&y=678479&z=3&sv=315447,678479&st=4&tl=~&bi=~&lu=N&ar=y",http://www.geograph.org.uk/mapper/coverage.php?zoom=10&layers=FTTB00000000000FT&lat=55.991786&lon=-3.357015,http://www.hill-bagging.co.uk/mountaindetails.php?qu=S&rf=14292,315447,678479,55.991786,-3.357015,NT1544778479,28.1,1827,Cairnpapple Hill,,0,0,0,0,1,0,0,0,0,0,0,0,0,0,0,0,0,0,0,0,0,0,0,1,0,0,0,0,0,0,0,0,0,0,0,0,0,0,0,0,0,0,0,0,0,0,0,0,0,0,1,0,0,0,0,0,0,0,0,0,0,0,0,0,0,0,0,POINT (315446.9109052969 678478.2008543032)
14292,14293,Dundas Hill,,,28A,28A: Firth of Forth to the River Tweed,,,P03:Glasgow to Galashiels and North Berwick,Edinburgh,1,65,350,118.0,387,NT115765,NT 11515 76500,44.0,NT060770,74.0,ground by viewpoint,ground 60m NW at NT 11488 76554 may be as high,,,S,,23-Dec-16,,"http://www.streetmap.co.uk/newmap.srf?x=311514&y=676506&z=3&sv=311514,676506&st=4&tl=~&bi=~&lu=N&ar=y",http://www.geograph.org.uk/mapper/coverage.php?zoom=10&layers=FTTB00000000000FT&lat=55.973354&lon=-3.419394,http://www.hill-bagging.co.uk/mountaindetails.php?qu=S&rf=14293,311514,676506,55.973354,-3.419394,NT1151476506,28.1,1827,Cairnpapple Hill,,0,0,0,0,1,0,0,0,0,0,0,0,0,0,0,0,0,0,0,0,0,0,0,1,0,0,0,0,0,0,0,0,0,0,0,0,0,0,0,0,0,0,0,0,0,0,0,0,0,0,0,0,0,0,0,0,0,0,0,0,0,0,0,0,0,0,0,POINT (311513.8194117375 676505.1274205729)
14293,14294,Ratho Hill,,,28A,28A: Firth of Forth to the River Tweed,,,P03:Glasgow to Galashiels and North Berwick,Edinburgh,1,65,350,117.0,384,NT131710,NT 13188 71038,35.0,NT123706,82.0,no feature,summit is in trees,,,S,,20-Jan-12,,"http://www.streetmap.co.uk/newmap.srf?x=313187&y=671044&z=3&sv=313187,671044&st=4&tl=~&bi=~&lu=N&ar=y",http://www.geograph.org.uk/mapper/coverage.php?zoom=10&layers=FTTB00000000000FT&lat=55.924599&lon=-3.390836,http://www.hill-bagging.co.uk/mountaindetails.php?qu=S&rf=14294,313187,671044,55.924599,-3.390836,NT1318771044,28.1,1809,East Cairn Hill,,0,0,0,0,1,0,0,0,0,0,0,0,0,0,0,0,0,0,0,0,0,0,0,1,0,0,0,0,0,0,0,0,0,0,0,0,0,0,0,0,0,0,0,0,0,0,0,0,0,0,0,0,0,0,0,0,0,0,0,0,0,0,0,0,0,0,0,POINT (313186.8288184965 671043.0708858105)
14294,14295,Binns Hill,,,28A,28A: Firth of Forth to the River Tweed,,,P03:Glasgow to Galashiels and North Berwick,West Lothian,1,65,349E,113.0,371,NT052785,NT 05265 78582,51.0,NT042782,62.0,no feature: ground E of tower,trig point is lower,,,S,,14-Feb-15,,"http://www.streetmap.co.uk/newmap.srf?x=305264&y=678588&z=3&sv=305264,678588&st=4&tl=~&bi=~&lu=N&ar=y",http://www.geograph.org.uk/mapper/coverage.php?zoom=10&layers=FTTB00000000000FT&lat=55.990861&lon=-3.520235,http://www.hill-bagging.co.uk/mountaindetails.php?qu=S&rf=14295,305264,678588,55.990860999999995,-3.520235,NT0526478588,28.1,1827,Cairnpapple Hill,,0,0,0,0,1,0,0,0,0,0,0,0,0,0,0,0,0,0,0,0,0,0,0,1,0,0,0,0,0,0,0,0,0,0,0,0,0,0,0,0,0,0,0,0,0,0,0,0,0,0,0,0,0,0,0,0,0,0,0,0,0,0,0,0,0,0,0,POINT (305263.7110132161 678587.251315297)
14297,14298,Pencraig Hill,,,28A,28A: Firth of Forth to the River Tweed,Moorfoot Hills,,P03:Glasgow to Galashiels and North Berwick,East Lothian,1,67,351E,109.0,358,NT572765,NT 57202 76590,46.0,NT552764,63.0,no feature,,,,S,,20-Jan-12,,"http://www.streetmap.co.uk/newmap.srf?x=357202&y=676596&z=3&sv=357202,676596&st=4&tl=~&bi=~&lu=N&ar=y",http://www.geograph.org.uk/mapper/coverage.php?zoom=10&layers=FTTB00000000000FT&lat=55.980418&lon=-2.68744,http://www.hill-bagging.co.uk/mountaindetails.php?qu=S&rf=14298,357202,676596,55.98041800000001,-2.68744,NT5720276596,28.1,1802,Blackhope Scar,,0,0,0,0,1,0,0,0,0,0,0,0,0,0,0,0,0,0,0,0,0,0,0,1,0,0,0,0,0,0,0,0,0,0,0,0,0,0,0,0,0,0,0,0,0,0,0,0,0,0,0,0,0,0,0,0,0,0,0,0,0,0,0,0,0,0,0,POINT (357201.7758386116 676595.0202155382)
14298,14299,Craigie Hill,,,28A,28A: Firth of Forth to the River Tweed,,,P03:Glasgow to Galashiels and North Berwick,Edinburgh,1,65,350,108.0,354,NT155763,NT 15569 76299,50.0,NT134758,58.0,no feature: ground by edge of cliff,,,,S,,24-Jul-13,,"http://www.streetmap.co.uk/newmap.srf?x=315568&y=676305&z=3&sv=315568,676305&st=4&tl=~&bi=~&lu=N&ar=y",http://www.geograph.org.uk/mapper/coverage.php?zoom=10&layers=FTTB00000000000FT&lat=55.97228&lon=-3.354393,http://www.hill-bagging.co.uk/mountaindetails.php?qu=S&rf=14299,315568,676305,55.972280000000005,-3.354393,NT1556876305,28.1,1827,Cairnpapple Hill,,0,0,0,0,1,0,0,0,0,0,0,0,0,0,0,0,0,0,0,0,0,0,0,1,0,0,0,0,0,0,0,0,0,0,0,0,0,0,0,0,0,0,0,0,0,0,0,0,0,0,0,0,0,0,0,0,0,0,0,0,0,0,0,0,0,0,0,POINT (315567.9128727247 676304.1951198614)
14299,14300,Calton Hill,,,28A,28A: Firth of Forth to the River Tweed,,,P03:Glasgow to Galashiels and North Berwick,Edinburgh,1,66,350,101.0,331,NT262741,NT 26274 74096,44.0,NT259741,57.0,exposed rock behind Nelson's monument,,,,S,,15-Mar-15,,"http://www.streetmap.co.uk/newmap.srf?x=326273&y=674102&z=3&sv=326273,674102&st=4&tl=~&bi=~&lu=N&ar=y",http://www.geograph.org.uk/mapper/coverage.php?zoom=10&layers=FTTB00000000000FT&lat=55.954255&lon=-3.182309,http://www.hill-bagging.co.uk/mountaindetails.php?qu=S&rf=14300,326273,674102,55.954255,-3.182309,NT2627374102,28.1,1816,Allermuir Hill,,0,0,0,0,1,0,0,0,0,0,0,0,0,0,0,0,0,0,0,0,0,0,0,1,0,0,0,0,0,0,0,0,0,0,0,0,0,0,0,0,0,0,0,0,0,0,0,0,0,0,0,0,0,0,0,0,0,0,0,0,0,0,0,0,0,0,0,POINT (326273.1166815991 674101.069553248)
14306,14307,Mansion Hill,,,28A,28A: Firth of Forth to the River Tweed,,,P03:Glasgow to Galashiels and North Berwick,Edinburgh,0,65 66,350,82.0,269,NT162775,NT 16206 77543,34.0,NT158776,48.0,no feature: ground in open woodland,,,,S,,20-Jan-12,,"http://www.streetmap.co.uk/newmap.srf?x=316205&y=677549&z=3&sv=316205,677549&st=4&tl=~&bi=~&lu=N&ar=y",http://www.geograph.org.uk/mapper/coverage.php?zoom=10&layers=FTTB00000000000FT&lat=55.983565&lon=-3.344577,http://www.hill-bagging.co.uk/mountaindetails.php?qu=S&rf=14307,316205,677549,55.983565000000006,-3.3445769999999997,NT1620577549,28.1,1827,Cairnpapple Hill,,0,0,0,0,1,0,0,0,0,0,0,0,0,0,0,0,0,0,0,0,0,0,0,0,0,1,0,0,0,0,0,0,0,0,0,0,0,0,0,0,0,0,0,0,0,0,0,0,0,0,0,0,0,0,0,0,0,0,0,0,0,0,0,0,0,0,0,POINT (316204.9448556636 677548.1263986101)
14308,14309,Rockville Heughs,,,28A,28A: Firth of Forth to the River Tweed,,,P03:Glasgow to Galashiels and North Berwick,East Lothian,0,66,351E,80.0,262,NT555813,NT 55547 81316,32.0,NT558816,48.0,outcrop by small crag,ground 5m E is as high,Seco 2x Hand Level,,S,,30-Jan-15,Relocated from NT558814 January 2015,"http://www.streetmap.co.uk/newmap.srf?x=355547&y=681322&z=3&sv=355547,681322&st=4&tl=~&bi=~&lu=N&ar=y",http://www.geograph.org.uk/mapper/coverage.php?zoom=10&layers=FTTB00000000000FT&lat=56.022726&lon=-2.714744,http://www.hill-bagging.co.uk/mountaindetails.php?qu=S&rf=14309,355547,681322,56.022726,-2.714744,NT5554781322,28.1,1829,North Berwick Law,,0,0,0,0,1,0,0,0,0,0,0,0,0,0,0,0,0,0,0,0,0,0,0,0,0,1,0,0,0,0,0,0,0,0,0,0,0,0,0,0,0,0,0,0,0,0,0,0,0,0,0,0,0,0,0,0,0,0,0,0,0,0,0,0,0,0,0,POINT (355546.7400870049 681321.0770930554)
14309,14310,Whitekirk Hill,,,28A,28A: Firth of Forth to the River Tweed,,,P03:Glasgow to Galashiels and North Berwick,East Lothian,Un,67,351E,75.0,246,NT594819,NT 59477 81934,29.0,NT574815,46.0,circular bench,,,,S,,11-Mar-14,Deleted March 2014,"http://www.streetmap.co.uk/newmap.srf?x=359477&y=681940&z=3&sv=359477,681940&st=4&tl=~&bi=~&lu=N&ar=y",http://www.geograph.org.uk/mapper/coverage.php?zoom=10&layers=FTTB00000000000FT&lat=56.028628&lon=-2.651792,http://www.hill-bagging.co.uk/mountaindetails.php?qu=S&rf=14310,359477,681940,56.028628000000005,-2.651792,NT5947781940,28.1,1829,North Berwick Law,,0,0,0,0,0,0,0,0,0,0,0,0,0,0,0,0,0,0,0,0,0,0,0,0,0,0,0,0,0,0,0,0,0,0,0,0,0,0,0,0,0,0,0,0,0,0,0,0,0,0,0,0,0,0,0,0,0,0,0,0,0,0,0,0,0,0,1,POINT (359476.8262090257 681939.1395511741)
14310,14311,Gullane Hill,,,28A,28A: Firth of Forth to the River Tweed,,,P03:Glasgow to Galashiels and North Berwick,East Lothian,0,66,351W,69.0,226,NT474827,NT 47489 82698,42.0,NT519838,27.0,viewpoint,top of covered reservoir is the same height,Abney level,,S,,20-Jan-12,,"http://www.streetmap.co.uk/newmap.srf?x=347489&y=682704&z=3&sv=347489,682704&st=4&tl=~&bi=~&lu=N&ar=y",http://www.geograph.org.uk/mapper/coverage.php?zoom=10&layers=FTTB00000000000FT&lat=56.034325&lon=-2.844277,http://www.hill-bagging.co.uk/mountaindetails.php?qu=S&rf=14311,347489,682704,56.034325,-2.844277,NT4748982704,28.1,1829,North Berwick Law,,0,0,0,0,1,0,0,0,0,0,0,0,0,0,0,0,0,0,0,0,0,0,0,0,0,1,0,0,0,0,0,0,0,0,0,0,0,0,0,0,0,0,0,0,0,0,0,0,0,0,0,0,0,0,0,0,0,0,0,0,0,0,0,0,0,0,0,POINT (347488.6135854276 682703.1328796194)
14311,14312,New England,,,28A,28A: Firth of Forth to the River Tweed,,,P03:Glasgow to Galashiels and North Berwick,Edinburgh,0,65 66,350,68.0,223,NT163783,NT 16363 78301,31.0,NT162779,37.0,no feature: ground by ruined wall,,,,S,,20-Jan-12,,"http://www.streetmap.co.uk/newmap.srf?x=316362&y=678307&z=3&sv=316362,678307&st=4&tl=~&bi=~&lu=N&ar=y",http://www.geograph.org.uk/mapper/coverage.php?zoom=10&layers=FTTB00000000000FT&lat=55.990401&lon=-3.342298,http://www.hill-bagging.co.uk/mountaindetails.php?qu=S&rf=14312,316362,678307,55.990401,-3.3422980000000004,NT1636278307,28.1,1827,Cairnpapple Hill,,0,0,0,0,1,0,0,0,0,0,0,0,0,0,0,0,0,0,0,0,0,0,0,0,0,1,0,0,0,0,0,0,0,0,0,0,0,0,0,0,0,0,0,0,0,0,0,0,0,0,0,0,0,0,0,0,0,0,0,0,0,0,0,0,0,0,0,POINT (316361.9102699367 678306.1332274799)
14312,14313,Craigleith,,,28A,28A: Firth of Forth to the River Tweed,Forth: River & Firth,Mono Tump island,Z12:Tump islands Cape Wrath to Tweed,East Lothian,"0,SIB",66,351E,49.0,161,NT553869,NT 55354 86953,49.0,Sea,0.0,cairn,,,,S,,20-Jan-12,,"http://www.streetmap.co.uk/newmap.srf?x=355354&y=686959&z=3&sv=355354,686959&st=4&tl=~&bi=~&lu=N&ar=y",http://www.geograph.org.uk/mapper/coverage.php?zoom=10&layers=FTTB00000000000FT&lat=56.073351&lon=-2.718781,http://www.hill-bagging.co.uk/mountaindetails.php?qu=S&rf=14313,355354,686959,56.073351,-2.7187810000000003,NT5535486959,28.1,0,,,0,0,0,0,1,0,0,0,0,0,0,0,0,0,0,0,0,0,0,0,0,0,0,0,0,1,0,0,0,0,0,0,0,0,0,0,0,0,0,1,0,0,0,0,0,0,0,0,0,0,0,0,0,0,0,0,0,0,0,0,0,0,0,0,0,0,0,POINT (355353.7668135265 686958.1591827655)
14316,14317,Fidra,,,28A,28A: Firth of Forth to the River Tweed,Forth: River & Firth,Mono Tump island,Z12:Tump islands Cape Wrath to Tweed,East Lothian,"0,SIB",66,351W,33.0,108,NT512869,NT 51270 86975,33.0,Sea,0.0,no feature,,,,S,,05-Aug-13,,"http://www.streetmap.co.uk/newmap.srf?x=351270&y=686981&z=3&sv=351270,686981&st=4&tl=~&bi=~&lu=N&ar=y",http://www.geograph.org.uk/mapper/coverage.php?zoom=10&layers=FTTB00000000000FT&lat=56.07315&lon=-2.784385,http://www.hill-bagging.co.uk/mountaindetails.php?qu=S&rf=14317,351270,686981,56.07315,-2.784385,NT5127086981,28.1,0,,,0,0,0,0,1,0,0,0,0,0,0,0,0,0,0,0,0,0,0,0,0,0,0,0,0,1,0,0,0,0,0,0,0,0,0,0,0,0,0,1,0,0,0,0,0,0,0,0,0,0,0,0,0,0,0,0,0,0,0,0,0,0,0,0,0,0,0,POINT (351269.6983290352 686980.2559523568)
18961,18962,Five Sisters Bing,,,28A,28A: Firth of Forth to the River Tweed,,,P03:Glasgow to Galashiels and North Berwick,West Lothian,2,65,344,231.0,758,NT007640,NT 00750 64052,73.0,NT006639,158.0,knoll,,,,S,,17-Sep-14,,"http://www.streetmap.co.uk/newmap.srf?x=300748&y=664057&z=3&sv=300748,664057&st=4&tl=~&bi=~&lu=N&ar=y",http://www.geograph.org.uk/mapper/coverage.php?zoom=10&layers=FTTB00000000000FT&lat=55.859446&lon=-3.587239,http://www.hill-bagging.co.uk/mountaindetails.php?qu=S&rf=18962,300748,664057,55.859446,-3.587239,NT0074864057,28.1,1809,East Cairn Hill,,0,0,0,0,1,0,0,0,0,0,0,0,0,0,0,0,0,0,0,0,0,0,1,0,0,0,0,0,0,0,0,0,0,0,0,0,0,0,0,0,0,0,0,0,0,0,0,0,0,0,0,0,0,0,0,0,0,0,0,0,0,0,0,0,0,0,0,POINT (300748.5693185555 664056.9374507081)
18962,18963,Greendykes Bing,,,28A,28A: Firth of Forth to the River Tweed,,,P03:Glasgow to Galashiels and North Berwick,West Lothian,1,65,350,185.0,607,NT086737,NT 08673 73760,88.0,NT083736,97.0,no feature: grass,ground 30m SSE at NT 08684 73727 and 30m SE NT 08694 73740 is lower,Leica Disto D510/Leica RX1250,,S,,15-May-15,,"http://www.streetmap.co.uk/newmap.srf?x=308672&y=673766&z=3&sv=308672,673766&st=4&tl=~&bi=~&lu=N&ar=y",http://www.geograph.org.uk/mapper/coverage.php?zoom=10&layers=FTTB00000000000FT&lat=55.948211&lon=-3.463986,http://www.hill-bagging.co.uk/mountaindetails.php?qu=S&rf=18963,308672,673766,55.948211,-3.4639860000000002,NT0867273766,28.1,1827,Cairnpapple Hill,,0,0,0,0,1,0,0,0,0,0,0,0,0,0,0,0,0,0,0,0,0,0,0,1,0,0,0,0,0,0,0,0,0,0,0,0,0,0,0,0,0,0,0,0,0,0,0,0,0,0,0,0,0,0,0,0,0,0,0,0,0,0,0,0,0,0,0,POINT (308671.779077713 673765.1093551187)
18963,18964,Seafield Law,,,28A,28A: Firth of Forth to the River Tweed,,,P03:Glasgow to Galashiels and North Berwick,West Lothian,1,65,344 349E,198.4,651,NT004667,NT 00416 66722,43.0,NT004667,155.0,no feature: grass,,Leica RX1250,,S,,27-Jul-15,,"http://www.streetmap.co.uk/newmap.srf?x=300414&y=666727&z=3&sv=300414,666727&st=4&tl=~&bi=~&lu=N&ar=y",http://www.geograph.org.uk/mapper/coverage.php?zoom=10&layers=FTTB00000000000FT&lat=55.883358&lon=-3.593555,http://www.hill-bagging.co.uk/mountaindetails.php?qu=S&rf=18964,300414,666727,55.883357999999994,-3.5935550000000003,NT0041466727,28.1,1809,East Cairn Hill,,0,0,0,0,1,0,0,0,0,0,0,0,0,0,0,0,0,0,0,0,0,0,0,1,0,0,0,0,0,0,0,0,0,0,0,0,0,0,0,0,0,0,0,0,0,0,0,0,0,0,0,0,0,0,0,0,0,0,0,0,0,0,0,0,0,0,0,POINT (300414.5596432589 666727.0060503423)
18964,18965,Philpstoun Bing South,,,28A,28A: Firth of Forth to the River Tweed,,,P03:Glasgow to Galashiels and North Berwick,West Lothian,1,65,349E,112.9,370,NT055767,NT 05572 76705,31.0,NT055762,82.0,compressed shale overhanging bulge,summit 60m E at NT 05634 76705 (in trees) may be as high,Leica Disto D510/Leica RX1250,,S,,05-Aug-15,,"http://www.streetmap.co.uk/newmap.srf?x=305571&y=676711&z=3&sv=305571,676711&st=4&tl=~&bi=~&lu=N&ar=y",http://www.geograph.org.uk/mapper/coverage.php?zoom=10&layers=FTTB00000000000FT&lat=55.974063&lon=-3.514656,http://www.hill-bagging.co.uk/mountaindetails.php?qu=S&rf=18965,305571,676711,55.974063,-3.5146559999999996,NT0557176711,28.1,1827,Cairnpapple Hill,,0,0,0,0,1,0,0,0,0,0,0,0,0,0,0,0,0,0,0,0,0,0,0,1,0,0,0,0,0,0,0,0,0,0,0,0,0,0,0,0,0,0,0,0,0,0,0,0,0,0,0,0,0,0,0,0,0,0,0,0,0,0,0,0,0,0,0,POINT (305570.7300266022 676710.2301428072)
19118,19119,Philpstoun Bing North,,,28A,28A: Firth of Forth to the River Tweed,,,P03:Glasgow to Galashiels and North Berwick,West Lothian,1,65,349E,115.2,378,NT057768,NT 05769 76858,40.0,NT057767,75.0,gravel mound,,Leica RX1250,,S,,22-Jul-15,Alternative col at NT060769 is probably lower,"http://www.streetmap.co.uk/newmap.srf?x=305768&y=676864&z=3&sv=305768,676864&st=4&tl=~&bi=~&lu=N&ar=y",http://www.geograph.org.uk/mapper/coverage.php?zoom=10&layers=FTTB00000000000FT&lat=55.975476&lon=-3.511555,http://www.hill-bagging.co.uk/mountaindetails.php?qu=S&rf=19119,305768,676864,55.975476,-3.5115550000000004,NT0576876864,28.1,1827,Cairnpapple Hill,,0,0,0,0,1,0,0,0,0,0,0,0,0,0,0,0,0,0,0,0,0,0,0,1,0,0,0,0,0,0,0,0,0,0,0,0,0,0,0,0,0,0,0,0,0,0,0,0,0,0,0,0,0,0,0,0,0,0,0,0,0,0,0,0,0,0,0,POINT (305767.6822469481 676863.239666611)
19119,19120,Greendykes Bing South Top,,,28A,28A: Firth of Forth to the River Tweed,,,P03:Glasgow to Galashiels and North Berwick,West Lothian,1,65,350,127.8,419,NT090733,NT 09068 73340,42.9,NT 0878 7327,84.9,no feature: ground by path,,Leica Disto D510/Leica RX1250,,S,,22-Jul-15,,"http://www.streetmap.co.uk/newmap.srf?x=309067&y=673346&z=3&sv=309067,673346&st=4&tl=~&bi=~&lu=N&ar=y",http://www.geograph.org.uk/mapper/coverage.php?zoom=10&layers=FTTB00000000000FT&lat=55.944514&lon=-3.457522,http://www.hill-bagging.co.uk/mountaindetails.php?qu=S&rf=19120,309067,673346,55.944514,-3.457522,NT0906773346,28.1,1827,Cairnpapple Hill,,0,0,0,0,1,0,0,0,0,0,0,0,0,0,0,0,0,0,0,0,0,0,0,1,0,0,0,0,0,0,0,0,0,0,0,0,0,0,0,0,0,0,0,0,0,0,0,0,0,0,0,0,0,0,0,0,0,0,0,0,0,0,0,0,0,0,0,POINT (309066.7519990554 673345.1544433911)
